{
"type": "FeatureCollection",
"name": "parallel_adaptive_speed_result_1",
"crs": { "type": "name", "properties": { "name": "urn:ogc:def:crs:EPSG::25833" } },
"features": [
{ "type": "Feature", "properties": { "id": 6, "slope": 1 }, "geometry": { "type": "Polygon", "coordinates": [ [ [ 259532.75949650068651, 7035974.06941501237452 ], [ 259532.75949650068651, 7035969.066224423237145 ], [ 259527.756305910734227, 7035969.066224423237145 ], [ 259527.756305910734227, 7035964.063033833168447 ], [ 259522.753115320781944, 7035964.063033833168447 ], [ 259522.753115320781944, 7035959.059843243099749 ], [ 259517.749924730829662, 7035959.059843243099749 ], [ 259517.749924730829662, 7035954.056652653031051 ], [ 259512.746734140906483, 7035954.056652653031051 ], [ 259512.746734140906483, 7035949.053462062962353 ], [ 259507.7435435509542, 7035949.053462062962353 ], [ 259507.7435435509542, 7035944.050271472893655 ], [ 259502.740352961001918, 7035944.050271472893655 ], [ 259502.740352961001918, 7035939.047080882824957 ], [ 259497.737162371049635, 7035939.047080882824957 ], [ 259497.737162371049635, 7035934.043890292756259 ], [ 259492.733971781097353, 7035934.043890292756259 ], [ 259492.733971781097353, 7035929.040699703618884 ], [ 259487.730781191174174, 7035929.040699703618884 ], [ 259487.730781191174174, 7035924.037509113550186 ], [ 259482.727590601221891, 7035924.037509113550186 ], [ 259482.727590601221891, 7035919.034318523481488 ], [ 259477.724400011269609, 7035919.034318523481488 ], [ 259477.724400011269609, 7035914.03112793341279 ], [ 259472.721209421317326, 7035914.03112793341279 ], [ 259472.721209421317326, 7035909.027937343344092 ], [ 259467.718018831365043, 7035909.027937343344092 ], [ 259467.718018831365043, 7035904.024746753275394 ], [ 259462.714828241412761, 7035904.024746753275394 ], [ 259462.714828241412761, 7035899.021556163206697 ], [ 259457.711637651489582, 7035899.021556163206697 ], [ 259457.711637651489582, 7035894.018365573137999 ], [ 259452.708447061537299, 7035894.018365573137999 ], [ 259452.708447061537299, 7035889.015174984000623 ], [ 259447.705256471585017, 7035889.015174984000623 ], [ 259447.705256471585017, 7035884.011984393931925 ], [ 259442.702065881632734, 7035884.011984393931925 ], [ 259442.702065881632734, 7035879.008793803863227 ], [ 259437.698875291680451, 7035879.008793803863227 ], [ 259437.698875291680451, 7035874.005603213794529 ], [ 259432.695684701757273, 7035874.005603213794529 ], [ 259432.695684701757273, 7035869.002412623725832 ], [ 259427.69249411180499, 7035869.002412623725832 ], [ 259427.69249411180499, 7035863.999222033657134 ], [ 259422.689303521852707, 7035863.999222033657134 ], [ 259422.689303521852707, 7035858.996031443588436 ], [ 259417.686112931900425, 7035858.996031443588436 ], [ 259417.686112931900425, 7035853.99284085445106 ], [ 259412.682922341948142, 7035853.99284085445106 ], [ 259412.682922341948142, 7035848.989650264382362 ], [ 259407.67973175199586, 7035848.989650264382362 ], [ 259407.67973175199586, 7035843.986459674313664 ], [ 259402.676541162072681, 7035843.986459674313664 ], [ 259402.676541162072681, 7035838.983269084244967 ], [ 259397.673350572120398, 7035838.983269084244967 ], [ 259397.673350572120398, 7035833.980078494176269 ], [ 259392.670159982168116, 7035833.980078494176269 ], [ 259392.670159982168116, 7035828.976887904107571 ], [ 259387.666969392215833, 7035828.976887904107571 ], [ 259387.666969392215833, 7035823.973697314038873 ], [ 259382.66377880226355, 7035823.973697314038873 ], [ 259382.66377880226355, 7035818.970506723970175 ], [ 259377.660588212340372, 7035818.970506723970175 ], [ 259377.660588212340372, 7035813.967316134832799 ], [ 259372.657397622388089, 7035813.967316134832799 ], [ 259372.657397622388089, 7035808.964125544764102 ], [ 259367.654207032435806, 7035808.964125544764102 ], [ 259367.654207032435806, 7035803.960934954695404 ], [ 259362.651016442483524, 7035803.960934954695404 ], [ 259362.651016442483524, 7035798.957744364626706 ], [ 259357.647825852531241, 7035798.957744364626706 ], [ 259357.647825852531241, 7035793.954553774558008 ], [ 259352.644635262578959, 7035793.954553774558008 ], [ 259352.644635262578959, 7035788.95136318448931 ], [ 259347.64144467265578, 7035788.95136318448931 ], [ 259347.64144467265578, 7035783.948172594420612 ], [ 259342.638254082703497, 7035783.948172594420612 ], [ 259342.638254082703497, 7035778.944982004351914 ], [ 259337.635063492751215, 7035778.944982004351914 ], [ 259337.635063492751215, 7035773.941791415214539 ], [ 259332.631872902798932, 7035773.941791415214539 ], [ 259332.631872902798932, 7035753.929029054939747 ], [ 259337.635063492751215, 7035753.929029054939747 ], [ 259337.635063492751215, 7035743.922647874802351 ], [ 259342.638254082703497, 7035743.922647874802351 ], [ 259342.638254082703497, 7035738.919457285664976 ], [ 259337.635063492751215, 7035738.919457285664976 ], [ 259337.635063492751215, 7035718.906694925390184 ], [ 259322.625491722923471, 7035718.906694925390184 ], [ 259322.625491722923471, 7035713.903504335321486 ], [ 259317.622301132971188, 7035713.903504335321486 ], [ 259317.622301132971188, 7035688.887551385909319 ], [ 259312.619110543018905, 7035688.887551385909319 ], [ 259312.619110543018905, 7035683.884360795840621 ], [ 259317.622301132971188, 7035683.884360795840621 ], [ 259317.622301132971188, 7035673.877979615703225 ], [ 259322.625491722923471, 7035673.877979615703225 ], [ 259322.625491722923471, 7035668.874789025634527 ], [ 259327.628682312846649, 7035668.874789025634527 ], [ 259327.628682312846649, 7035663.871598435565829 ], [ 259342.638254082703497, 7035663.871598435565829 ], [ 259342.638254082703497, 7035658.868407846428454 ], [ 259347.64144467265578, 7035658.868407846428454 ], [ 259347.64144467265578, 7035653.865217256359756 ], [ 259352.644635262578959, 7035653.865217256359756 ], [ 259352.644635262578959, 7035648.862026666291058 ], [ 259362.651016442483524, 7035648.862026666291058 ], [ 259362.651016442483524, 7035643.85883607622236 ], [ 259367.654207032435806, 7035643.85883607622236 ], [ 259367.654207032435806, 7035638.855645486153662 ], [ 259372.657397622388089, 7035638.855645486153662 ], [ 259372.657397622388089, 7035613.839692536741495 ], [ 259377.660588212340372, 7035613.839692536741495 ], [ 259377.660588212340372, 7035593.826930176466703 ], [ 259382.66377880226355, 7035593.826930176466703 ], [ 259382.66377880226355, 7035583.82054899726063 ], [ 259387.666969392215833, 7035583.82054899726063 ], [ 259387.666969392215833, 7035573.814167817123234 ], [ 259392.670159982168116, 7035573.814167817123234 ], [ 259392.670159982168116, 7035568.810977227054536 ], [ 259397.673350572120398, 7035568.810977227054536 ], [ 259397.673350572120398, 7035563.807786636985838 ], [ 259402.676541162072681, 7035563.807786636985838 ], [ 259402.676541162072681, 7035558.80459604691714 ], [ 259407.67973175199586, 7035558.80459604691714 ], [ 259407.67973175199586, 7035553.801405456848443 ], [ 259412.682922341948142, 7035553.801405456848443 ], [ 259412.682922341948142, 7035548.798214866779745 ], [ 259417.686112931900425, 7035548.798214866779745 ], [ 259417.686112931900425, 7035543.795024277642369 ], [ 259422.689303521852707, 7035543.795024277642369 ], [ 259422.689303521852707, 7035538.791833687573671 ], [ 259427.69249411180499, 7035538.791833687573671 ], [ 259427.69249411180499, 7035533.788643097504973 ], [ 259432.695684701757273, 7035533.788643097504973 ], [ 259432.695684701757273, 7035528.785452507436275 ], [ 259437.698875291680451, 7035528.785452507436275 ], [ 259437.698875291680451, 7035523.782261917367578 ], [ 259447.705256471585017, 7035523.782261917367578 ], [ 259447.705256471585017, 7035528.785452507436275 ], [ 259452.708447061537299, 7035528.785452507436275 ], [ 259452.708447061537299, 7035533.788643097504973 ], [ 259457.711637651489582, 7035533.788643097504973 ], [ 259457.711637651489582, 7035538.791833687573671 ], [ 259477.724400011269609, 7035538.791833687573671 ], [ 259477.724400011269609, 7035533.788643097504973 ], [ 259492.733971781097353, 7035533.788643097504973 ], [ 259492.733971781097353, 7035528.785452507436275 ], [ 259502.740352961001918, 7035528.785452507436275 ], [ 259502.740352961001918, 7035523.782261917367578 ], [ 259522.753115320781944, 7035523.782261917367578 ], [ 259522.753115320781944, 7035528.785452507436275 ], [ 259532.75949650068651, 7035528.785452507436275 ], [ 259532.75949650068651, 7035513.775880737230182 ], [ 259527.756305910734227, 7035513.775880737230182 ], [ 259527.756305910734227, 7035493.763118377886713 ], [ 259522.753115320781944, 7035493.763118377886713 ], [ 259522.753115320781944, 7035483.756737197749317 ], [ 259517.749924730829662, 7035483.756737197749317 ], [ 259517.749924730829662, 7035448.734403068199754 ], [ 259512.746734140906483, 7035448.734403068199754 ], [ 259512.746734140906483, 7035438.728021888062358 ], [ 259507.7435435509542, 7035438.728021888062358 ], [ 259507.7435435509542, 7035433.72483129799366 ], [ 259502.740352961001918, 7035433.72483129799366 ], [ 259502.740352961001918, 7035428.721640708856285 ], [ 259497.737162371049635, 7035428.721640708856285 ], [ 259497.737162371049635, 7035413.712068938650191 ], [ 259502.740352961001918, 7035413.712068938650191 ], [ 259502.740352961001918, 7035408.708878348581493 ], [ 259507.7435435509542, 7035408.708878348581493 ], [ 259507.7435435509542, 7035393.699306579306722 ], [ 259502.740352961001918, 7035393.699306579306722 ], [ 259502.740352961001918, 7035378.689734809100628 ], [ 259497.737162371049635, 7035378.689734809100628 ], [ 259497.737162371049635, 7035373.68654421903193 ], [ 259492.733971781097353, 7035373.68654421903193 ], [ 259492.733971781097353, 7035343.667400679551065 ], [ 259487.730781191174174, 7035343.667400679551065 ], [ 259487.730781191174174, 7035338.664210089482367 ], [ 259482.727590601221891, 7035338.664210089482367 ], [ 259482.727590601221891, 7035333.661019499413669 ], [ 259477.724400011269609, 7035333.661019499413669 ], [ 259477.724400011269609, 7035328.657828909344971 ], [ 259467.718018831365043, 7035328.657828909344971 ], [ 259467.718018831365043, 7035323.654638319276273 ], [ 259452.708447061537299, 7035323.654638319276273 ], [ 259452.708447061537299, 7035318.651447729207575 ], [ 259442.702065881632734, 7035318.651447729207575 ], [ 259442.702065881632734, 7035313.6482571400702 ], [ 259437.698875291680451, 7035313.6482571400702 ], [ 259437.698875291680451, 7035308.645066550001502 ], [ 259432.695684701757273, 7035308.645066550001502 ], [ 259432.695684701757273, 7035303.641875959932804 ], [ 259427.69249411180499, 7035303.641875959932804 ], [ 259427.69249411180499, 7035293.635494779795408 ], [ 259417.686112931900425, 7035293.635494779795408 ], [ 259417.686112931900425, 7035278.625923010520637 ], [ 259412.682922341948142, 7035278.625923010520637 ], [ 259412.682922341948142, 7035263.616351240314543 ], [ 259407.67973175199586, 7035263.616351240314543 ], [ 259407.67973175199586, 7035233.597207700833678 ], [ 259412.682922341948142, 7035233.597207700833678 ], [ 259412.682922341948142, 7035133.533395901322365 ], [ 259407.67973175199586, 7035133.533395901322365 ], [ 259407.67973175199586, 7035098.511061771772802 ], [ 259402.676541162072681, 7035098.511061771772802 ], [ 259402.676541162072681, 7035038.472774692811072 ], [ 259397.673350572120398, 7035038.472774692811072 ], [ 259397.673350572120398, 7035033.469584102742374 ], [ 259387.666969392215833, 7035033.469584102742374 ], [ 259387.666969392215833, 7035028.466393512673676 ], [ 259372.657397622388089, 7035028.466393512673676 ], [ 259372.657397622388089, 7035023.463202922604978 ], [ 259367.654207032435806, 7035023.463202922604978 ], [ 259367.654207032435806, 7035028.466393512673676 ], [ 259362.651016442483524, 7035028.466393512673676 ], [ 259362.651016442483524, 7035023.463202922604978 ], [ 259352.644635262578959, 7035023.463202922604978 ], [ 259352.644635262578959, 7035028.466393512673676 ], [ 259347.64144467265578, 7035028.466393512673676 ], [ 259347.64144467265578, 7035033.469584102742374 ], [ 259337.635063492751215, 7035033.469584102742374 ], [ 259337.635063492751215, 7035038.472774692811072 ], [ 259322.625491722923471, 7035038.472774692811072 ], [ 259322.625491722923471, 7035033.469584102742374 ], [ 259312.619110543018905, 7035033.469584102742374 ], [ 259312.619110543018905, 7035023.463202922604978 ], [ 259307.615919953066623, 7035023.463202922604978 ], [ 259307.615919953066623, 7035018.46001233253628 ], [ 259302.61272936311434, 7035018.46001233253628 ], [ 259302.61272936311434, 7035008.453631153330207 ], [ 259297.609538773162058, 7035008.453631153330207 ], [ 259297.609538773162058, 7034998.447249973192811 ], [ 259292.606348183238879, 7034998.447249973192811 ], [ 259292.606348183238879, 7034993.444059383124113 ], [ 259287.603157593286596, 7034993.444059383124113 ], [ 259287.603157593286596, 7034978.434487612918019 ], [ 259282.599967003334314, 7034978.434487612918019 ], [ 259282.599967003334314, 7034953.418534663505852 ], [ 259292.606348183238879, 7034953.418534663505852 ], [ 259292.606348183238879, 7034943.412153483368456 ], [ 259297.609538773162058, 7034943.412153483368456 ], [ 259297.609538773162058, 7034938.408962893299758 ], [ 259302.61272936311434, 7034938.408962893299758 ], [ 259302.61272936311434, 7034933.405772304162383 ], [ 259297.609538773162058, 7034933.405772304162383 ], [ 259297.609538773162058, 7034928.402581714093685 ], [ 259272.593585823429748, 7034928.402581714093685 ], [ 259272.593585823429748, 7034923.399391124024987 ], [ 259257.584014053602004, 7034923.399391124024987 ], [ 259257.584014053602004, 7034918.396200533956289 ], [ 259237.571251693821978, 7034918.396200533956289 ], [ 259237.571251693821978, 7034913.393009943887591 ], [ 259227.564870513917413, 7034913.393009943887591 ], [ 259227.564870513917413, 7034908.389819353818893 ], [ 259217.558489334012847, 7034908.389819353818893 ], [ 259217.558489334012847, 7034898.383438173681498 ], [ 259212.555298744089669, 7034898.383438173681498 ], [ 259212.555298744089669, 7034893.380247584544122 ], [ 259207.552108154137386, 7034893.380247584544122 ], [ 259207.552108154137386, 7034818.332388735376298 ], [ 259202.548917564185103, 7034818.332388735376298 ], [ 259202.548917564185103, 7034808.326007555238903 ], [ 259192.542536384280538, 7034808.326007555238903 ], [ 259192.542536384280538, 7034803.322816965170205 ], [ 259187.539345794328256, 7034803.322816965170205 ], [ 259187.539345794328256, 7034798.319626375101507 ], [ 259177.532964614452794, 7034798.319626375101507 ], [ 259177.532964614452794, 7034793.316435785032809 ], [ 259172.529774024500512, 7034793.316435785032809 ], [ 259172.529774024500512, 7034798.319626375101507 ], [ 259162.523392844595946, 7034798.319626375101507 ], [ 259162.523392844595946, 7034803.322816965170205 ], [ 259137.507439894863637, 7034803.322816965170205 ], [ 259137.507439894863637, 7034798.319626375101507 ], [ 259127.501058714988176, 7034798.319626375101507 ], [ 259127.501058714988176, 7034793.316435785032809 ], [ 259107.488296355179045, 7034793.316435785032809 ], [ 259107.488296355179045, 7034788.313245194964111 ], [ 259092.478724585351301, 7034788.313245194964111 ], [ 259092.478724585351301, 7034793.316435785032809 ], [ 259077.469152815523557, 7034793.316435785032809 ], [ 259077.469152815523557, 7034788.313245194964111 ], [ 259067.462771635618992, 7034788.313245194964111 ], [ 259067.462771635618992, 7034793.316435785032809 ], [ 259007.424484556249809, 7034793.316435785032809 ], [ 259007.424484556249809, 7034788.313245194964111 ], [ 259012.427675146202091, 7034788.313245194964111 ], [ 259012.427675146202091, 7034768.300482835620642 ], [ 259007.424484556249809, 7034768.300482835620642 ], [ 259007.424484556249809, 7034763.297292245551944 ], [ 259002.421293966297526, 7034763.297292245551944 ], [ 259002.421293966297526, 7034748.28772047534585 ], [ 258997.418103376345243, 7034748.28772047534585 ], [ 258997.418103376345243, 7034723.271767525933683 ], [ 258992.414912786422065, 7034723.271767525933683 ], [ 258992.414912786422065, 7034718.268576935864985 ], [ 258987.411722196469782, 7034718.268576935864985 ], [ 258987.411722196469782, 7034708.262195755727589 ], [ 258982.408531606517499, 7034708.262195755727589 ], [ 258982.408531606517499, 7034698.255814576521516 ], [ 258977.405341016565217, 7034698.255814576521516 ], [ 258977.405341016565217, 7034683.246242806315422 ], [ 258972.402150426612934, 7034683.246242806315422 ], [ 258972.402150426612934, 7034678.243052216246724 ], [ 258977.405341016565217, 7034678.243052216246724 ], [ 258977.405341016565217, 7034668.236671036109328 ], [ 258972.402150426612934, 7034668.236671036109328 ], [ 258972.402150426612934, 7034648.223908676765859 ], [ 258977.405341016565217, 7034648.223908676765859 ], [ 258977.405341016565217, 7034623.207955727353692 ], [ 258982.408531606517499, 7034623.207955727353692 ], [ 258982.408531606517499, 7034613.201574547216296 ], [ 258987.411722196469782, 7034613.201574547216296 ], [ 258987.411722196469782, 7034608.198383957147598 ], [ 258982.408531606517499, 7034608.198383957147598 ], [ 258982.408531606517499, 7034603.1951933670789 ], [ 258977.405341016565217, 7034603.1951933670789 ], [ 258977.405341016565217, 7034608.198383957147598 ], [ 258972.402150426612934, 7034608.198383957147598 ], [ 258972.402150426612934, 7034613.201574547216296 ], [ 258967.398959836689755, 7034613.201574547216296 ], [ 258967.398959836689755, 7034618.204765137284994 ], [ 258962.395769246737473, 7034618.204765137284994 ], [ 258962.395769246737473, 7034623.207955727353692 ], [ 258957.39257865678519, 7034623.207955727353692 ], [ 258957.39257865678519, 7034638.217527496628463 ], [ 258952.389388066832907, 7034638.217527496628463 ], [ 258952.389388066832907, 7034643.220718086697161 ], [ 258947.386197476880625, 7034643.220718086697161 ], [ 258947.386197476880625, 7034658.230289856903255 ], [ 258942.383006886928342, 7034658.230289856903255 ], [ 258942.383006886928342, 7034668.236671036109328 ], [ 258937.379816297005164, 7034668.236671036109328 ], [ 258937.379816297005164, 7034678.243052216246724 ], [ 258942.383006886928342, 7034678.243052216246724 ], [ 258942.383006886928342, 7034703.259005166590214 ], [ 258947.386197476880625, 7034703.259005166590214 ], [ 258947.386197476880625, 7034713.265386345796287 ], [ 258952.389388066832907, 7034713.265386345796287 ], [ 258952.389388066832907, 7034723.271767525933683 ], [ 258957.39257865678519, 7034723.271767525933683 ], [ 258957.39257865678519, 7034728.274958116002381 ], [ 258962.395769246737473, 7034728.274958116002381 ], [ 258962.395769246737473, 7034768.300482835620642 ], [ 258942.383006886928342, 7034768.300482835620642 ], [ 258942.383006886928342, 7034773.30367342568934 ], [ 258927.373435117100598, 7034773.30367342568934 ], [ 258927.373435117100598, 7034778.306864015758038 ], [ 258917.367053937196033, 7034778.306864015758038 ], [ 258917.367053937196033, 7034783.310054604895413 ], [ 258907.360672757320572, 7034783.310054604895413 ], [ 258907.360672757320572, 7034788.313245194964111 ], [ 258902.357482167368289, 7034788.313245194964111 ], [ 258902.357482167368289, 7034793.316435785032809 ], [ 258897.354291577416006, 7034793.316435785032809 ], [ 258897.354291577416006, 7034798.319626375101507 ], [ 258877.34152921763598, 7034798.319626375101507 ], [ 258877.34152921763598, 7034803.322816965170205 ], [ 258872.338338627683697, 7034803.322816965170205 ], [ 258872.338338627683697, 7034823.335579324513674 ], [ 258867.335148037731415, 7034823.335579324513674 ], [ 258867.335148037731415, 7034828.338769914582372 ], [ 258847.322385677951388, 7034828.338769914582372 ], [ 258847.322385677951388, 7034823.335579324513674 ], [ 258842.319195087999105, 7034823.335579324513674 ], [ 258842.319195087999105, 7034818.332388735376298 ], [ 258832.31281390809454, 7034818.332388735376298 ], [ 258832.31281390809454, 7034813.3291981453076 ], [ 258822.306432728219079, 7034813.3291981453076 ], [ 258822.306432728219079, 7034818.332388735376298 ], [ 258812.300051548314514, 7034818.332388735376298 ], [ 258812.300051548314514, 7034813.3291981453076 ], [ 258807.296860958362231, 7034813.3291981453076 ], [ 258807.296860958362231, 7034808.326007555238903 ], [ 258802.293670368439052, 7034808.326007555238903 ], [ 258802.293670368439052, 7034803.322816965170205 ], [ 258797.29047977848677, 7034803.322816965170205 ], [ 258797.29047977848677, 7034783.310054604895413 ], [ 258792.287289188534487, 7034783.310054604895413 ], [ 258792.287289188534487, 7034778.306864015758038 ], [ 258787.284098598582204, 7034778.306864015758038 ], [ 258787.284098598582204, 7034773.30367342568934 ], [ 258782.280908008629922, 7034773.30367342568934 ], [ 258782.280908008629922, 7034778.306864015758038 ], [ 258777.277717418677639, 7034778.306864015758038 ], [ 258777.277717418677639, 7034783.310054604895413 ], [ 258767.271336238802178, 7034783.310054604895413 ], [ 258767.271336238802178, 7034788.313245194964111 ], [ 258762.268145648849895, 7034788.313245194964111 ], [ 258762.268145648849895, 7034793.316435785032809 ], [ 258752.26176446894533, 7034793.316435785032809 ], [ 258752.26176446894533, 7034798.319626375101507 ], [ 258747.258573879022151, 7034798.319626375101507 ], [ 258747.258573879022151, 7034803.322816965170205 ], [ 258742.255383289069869, 7034803.322816965170205 ], [ 258742.255383289069869, 7034808.326007555238903 ], [ 258727.245811519213021, 7034808.326007555238903 ], [ 258727.245811519213021, 7034813.3291981453076 ], [ 258717.239430339337559, 7034813.3291981453076 ], [ 258717.239430339337559, 7034808.326007555238903 ], [ 258707.233049159432994, 7034808.326007555238903 ], [ 258707.233049159432994, 7034803.322816965170205 ], [ 258697.226667979528429, 7034803.322816965170205 ], [ 258697.226667979528429, 7034798.319626375101507 ], [ 258677.213905619748402, 7034798.319626375101507 ], [ 258677.213905619748402, 7034793.316435785032809 ], [ 258667.207524439843837, 7034793.316435785032809 ], [ 258667.207524439843837, 7034798.319626375101507 ], [ 258592.15966559064691, 7034798.319626375101507 ], [ 258592.15966559064691, 7034793.316435785032809 ], [ 258582.153284410771448, 7034793.316435785032809 ], [ 258582.153284410771448, 7034788.313245194964111 ], [ 258572.146903230866883, 7034788.313245194964111 ], [ 258572.146903230866883, 7034783.310054604895413 ], [ 258532.121378511277726, 7034783.310054604895413 ], [ 258532.121378511277726, 7034788.313245194964111 ], [ 258517.111806741449982, 7034788.313245194964111 ], [ 258517.111806741449982, 7034793.316435785032809 ], [ 258512.108616151497699, 7034793.316435785032809 ], [ 258512.108616151497699, 7034798.319626375101507 ], [ 258502.102234971593134, 7034798.319626375101507 ], [ 258502.102234971593134, 7034803.322816965170205 ], [ 258492.095853791717673, 7034803.322816965170205 ], [ 258492.095853791717673, 7034793.316435785032809 ], [ 258487.09266320176539, 7034793.316435785032809 ], [ 258487.09266320176539, 7034788.313245194964111 ], [ 258482.089472611813108, 7034788.313245194964111 ], [ 258482.089472611813108, 7034778.306864015758038 ], [ 258477.086282021860825, 7034778.306864015758038 ], [ 258477.086282021860825, 7034768.300482835620642 ], [ 258472.083091431937646, 7034768.300482835620642 ], [ 258472.083091431937646, 7034763.297292245551944 ], [ 258467.079900841985364, 7034763.297292245551944 ], [ 258467.079900841985364, 7034753.290911065414548 ], [ 258462.076710252033081, 7034753.290911065414548 ], [ 258462.076710252033081, 7034748.28772047534585 ], [ 258457.073519662080798, 7034748.28772047534585 ], [ 258457.073519662080798, 7034728.274958116002381 ], [ 258452.070329072128516, 7034728.274958116002381 ], [ 258452.070329072128516, 7034718.268576935864985 ], [ 258457.073519662080798, 7034718.268576935864985 ], [ 258457.073519662080798, 7034713.265386345796287 ], [ 258462.076710252033081, 7034713.265386345796287 ], [ 258462.076710252033081, 7034708.262195755727589 ], [ 258472.083091431937646, 7034708.262195755727589 ], [ 258472.083091431937646, 7034713.265386345796287 ], [ 258477.086282021860825, 7034713.265386345796287 ], [ 258477.086282021860825, 7034708.262195755727589 ], [ 258487.09266320176539, 7034708.262195755727589 ], [ 258487.09266320176539, 7034703.259005166590214 ], [ 258492.095853791717673, 7034703.259005166590214 ], [ 258492.095853791717673, 7034698.255814576521516 ], [ 258497.099044381669955, 7034698.255814576521516 ], [ 258497.099044381669955, 7034693.252623986452818 ], [ 258502.102234971593134, 7034693.252623986452818 ], [ 258502.102234971593134, 7034688.24943339638412 ], [ 258507.105425561545417, 7034688.24943339638412 ], [ 258507.105425561545417, 7034678.243052216246724 ], [ 258512.108616151497699, 7034678.243052216246724 ], [ 258512.108616151497699, 7034673.239861626178026 ], [ 258517.111806741449982, 7034673.239861626178026 ], [ 258517.111806741449982, 7034658.230289856903255 ], [ 258522.114997331402265, 7034658.230289856903255 ], [ 258522.114997331402265, 7034653.227099266834557 ], [ 258527.118187921354547, 7034653.227099266834557 ], [ 258527.118187921354547, 7034648.223908676765859 ], [ 258532.121378511277726, 7034648.223908676765859 ], [ 258532.121378511277726, 7034643.220718086697161 ], [ 258547.130950281134574, 7034643.220718086697161 ], [ 258547.130950281134574, 7034653.227099266834557 ], [ 258552.134140871086856, 7034653.227099266834557 ], [ 258552.134140871086856, 7034643.220718086697161 ], [ 258557.137331461010035, 7034643.220718086697161 ], [ 258557.137331461010035, 7034628.21114631742239 ], [ 258562.140522050962318, 7034628.21114631742239 ], [ 258562.140522050962318, 7034623.207955727353692 ], [ 258567.1437126409146, 7034623.207955727353692 ], [ 258567.1437126409146, 7034593.188812186941504 ], [ 258572.146903230866883, 7034593.188812186941504 ], [ 258572.146903230866883, 7034588.185621597804129 ], [ 258577.150093820819166, 7034588.185621597804129 ], [ 258577.150093820819166, 7034583.182431007735431 ], [ 258587.156475000694627, 7034583.182431007735431 ], [ 258587.156475000694627, 7034578.179240417666733 ], [ 258607.169237360503757, 7034578.179240417666733 ], [ 258607.169237360503757, 7034573.176049827598035 ], [ 258612.172427950426936, 7034573.176049827598035 ], [ 258612.172427950426936, 7034563.169668647460639 ], [ 258617.175618540379219, 7034563.169668647460639 ], [ 258617.175618540379219, 7034553.163287467323244 ], [ 258627.181999720283784, 7034553.163287467323244 ], [ 258627.181999720283784, 7034548.160096878185868 ], [ 258642.191571490111528, 7034548.160096878185868 ], [ 258642.191571490111528, 7034538.153715698048472 ], [ 258647.194762080063811, 7034538.153715698048472 ], [ 258647.194762080063811, 7034528.147334517911077 ], [ 258652.197952670016093, 7034528.147334517911077 ], [ 258652.197952670016093, 7034518.140953337773681 ], [ 258657.201143259968376, 7034518.140953337773681 ], [ 258657.201143259968376, 7034508.134572158567607 ], [ 258662.204333849920658, 7034508.134572158567607 ], [ 258662.204333849920658, 7034498.128190978430212 ], [ 258687.220286799652968, 7034498.128190978430212 ], [ 258687.220286799652968, 7034493.125000388361514 ], [ 258712.236239749385277, 7034493.125000388361514 ], [ 258712.236239749385277, 7034488.121809798292816 ], [ 258697.226667979528429, 7034488.121809798292816 ], [ 258697.226667979528429, 7034483.118619208224118 ], [ 258687.220286799652968, 7034483.118619208224118 ], [ 258687.220286799652968, 7034488.121809798292816 ], [ 258662.204333849920658, 7034488.121809798292816 ], [ 258662.204333849920658, 7034493.125000388361514 ], [ 258657.201143259968376, 7034493.125000388361514 ], [ 258657.201143259968376, 7034498.128190978430212 ], [ 258652.197952670016093, 7034498.128190978430212 ], [ 258652.197952670016093, 7034508.134572158567607 ], [ 258637.188380900188349, 7034508.134572158567607 ], [ 258637.188380900188349, 7034513.137762748636305 ], [ 258642.191571490111528, 7034513.137762748636305 ], [ 258642.191571490111528, 7034518.140953337773681 ], [ 258647.194762080063811, 7034518.140953337773681 ], [ 258647.194762080063811, 7034523.144143927842379 ], [ 258642.191571490111528, 7034523.144143927842379 ], [ 258642.191571490111528, 7034533.150525107979774 ], [ 258637.188380900188349, 7034533.150525107979774 ], [ 258637.188380900188349, 7034538.153715698048472 ], [ 258627.181999720283784, 7034538.153715698048472 ], [ 258627.181999720283784, 7034543.15690628811717 ], [ 258622.178809130331501, 7034543.15690628811717 ], [ 258622.178809130331501, 7034548.160096878185868 ], [ 258612.172427950426936, 7034548.160096878185868 ], [ 258612.172427950426936, 7034553.163287467323244 ], [ 258607.169237360503757, 7034553.163287467323244 ], [ 258607.169237360503757, 7034568.172859237529337 ], [ 258582.153284410771448, 7034568.172859237529337 ], [ 258582.153284410771448, 7034573.176049827598035 ], [ 258572.146903230866883, 7034573.176049827598035 ], [ 258572.146903230866883, 7034578.179240417666733 ], [ 258562.140522050962318, 7034578.179240417666733 ], [ 258562.140522050962318, 7034588.185621597804129 ], [ 258537.124569101230009, 7034588.185621597804129 ], [ 258537.124569101230009, 7034593.188812186941504 ], [ 258532.121378511277726, 7034593.188812186941504 ], [ 258532.121378511277726, 7034588.185621597804129 ], [ 258527.118187921354547, 7034588.185621597804129 ], [ 258527.118187921354547, 7034583.182431007735431 ], [ 258512.108616151497699, 7034583.182431007735431 ], [ 258512.108616151497699, 7034578.179240417666733 ], [ 258502.102234971593134, 7034578.179240417666733 ], [ 258502.102234971593134, 7034573.176049827598035 ], [ 258497.099044381669955, 7034573.176049827598035 ], [ 258497.099044381669955, 7034558.166478057391942 ], [ 258502.102234971593134, 7034558.166478057391942 ], [ 258502.102234971593134, 7034553.163287467323244 ], [ 258507.105425561545417, 7034553.163287467323244 ], [ 258507.105425561545417, 7034558.166478057391942 ], [ 258512.108616151497699, 7034558.166478057391942 ], [ 258512.108616151497699, 7034548.160096878185868 ], [ 258537.124569101230009, 7034548.160096878185868 ], [ 258537.124569101230009, 7034543.15690628811717 ], [ 258542.127759691182291, 7034543.15690628811717 ], [ 258542.127759691182291, 7034538.153715698048472 ], [ 258527.118187921354547, 7034538.153715698048472 ], [ 258527.118187921354547, 7034533.150525107979774 ], [ 258517.111806741449982, 7034533.150525107979774 ], [ 258517.111806741449982, 7034528.147334517911077 ], [ 258512.108616151497699, 7034528.147334517911077 ], [ 258512.108616151497699, 7034518.140953337773681 ], [ 258492.095853791717673, 7034518.140953337773681 ], [ 258492.095853791717673, 7034498.128190978430212 ], [ 258472.083091431937646, 7034498.128190978430212 ], [ 258472.083091431937646, 7034488.121809798292816 ], [ 258477.086282021860825, 7034488.121809798292816 ], [ 258477.086282021860825, 7034483.118619208224118 ], [ 258472.083091431937646, 7034483.118619208224118 ], [ 258472.083091431937646, 7034478.11542861815542 ], [ 258467.079900841985364, 7034478.11542861815542 ], [ 258467.079900841985364, 7034468.109047438949347 ], [ 258462.076710252033081, 7034468.109047438949347 ], [ 258462.076710252033081, 7034458.102666258811951 ], [ 258452.070329072128516, 7034458.102666258811951 ], [ 258452.070329072128516, 7034463.105856848880649 ], [ 258412.044804352568462, 7034463.105856848880649 ], [ 258412.044804352568462, 7034468.109047438949347 ], [ 258397.035232582711615, 7034468.109047438949347 ], [ 258397.035232582711615, 7034473.112238029018044 ], [ 258392.032041992759332, 7034473.112238029018044 ], [ 258392.032041992759332, 7034478.11542861815542 ], [ 258387.028851402836153, 7034478.11542861815542 ], [ 258387.028851402836153, 7034473.112238029018044 ], [ 258382.025660812883871, 7034473.112238029018044 ], [ 258382.025660812883871, 7034458.102666258811951 ], [ 258397.035232582711615, 7034458.102666258811951 ], [ 258397.035232582711615, 7034448.096285078674555 ], [ 258402.038423172663897, 7034448.096285078674555 ], [ 258402.038423172663897, 7034408.070760359056294 ], [ 258407.04161376261618, 7034408.070760359056294 ], [ 258407.04161376261618, 7034378.051616819575429 ], [ 258412.044804352568462, 7034378.051616819575429 ], [ 258412.044804352568462, 7034373.048426229506731 ], [ 258407.04161376261618, 7034373.048426229506731 ], [ 258407.04161376261618, 7034363.042045049369335 ], [ 258412.044804352568462, 7034363.042045049369335 ], [ 258412.044804352568462, 7034353.035663870163262 ], [ 258417.047994942520745, 7034353.035663870163262 ], [ 258417.047994942520745, 7034338.026092099957168 ], [ 258432.057566712348489, 7034338.026092099957168 ], [ 258432.057566712348489, 7034333.02290150988847 ], [ 258442.063947892253054, 7034333.02290150988847 ], [ 258442.063947892253054, 7034328.019710919819772 ], [ 258467.079900841985364, 7034328.019710919819772 ], [ 258467.079900841985364, 7034323.016520330682397 ], [ 258477.086282021860825, 7034323.016520330682397 ], [ 258477.086282021860825, 7034318.013329740613699 ], [ 258482.089472611813108, 7034318.013329740613699 ], [ 258482.089472611813108, 7034313.010139150545001 ], [ 258487.09266320176539, 7034313.010139150545001 ], [ 258487.09266320176539, 7034308.006948560476303 ], [ 258492.095853791717673, 7034308.006948560476303 ], [ 258492.095853791717673, 7034303.003757970407605 ], [ 258497.099044381669955, 7034303.003757970407605 ], [ 258497.099044381669955, 7034298.000567380338907 ], [ 258502.102234971593134, 7034298.000567380338907 ], [ 258502.102234971593134, 7034292.997376790270209 ], [ 258492.095853791717673, 7034292.997376790270209 ], [ 258492.095853791717673, 7034287.994186200201511 ], [ 258487.09266320176539, 7034287.994186200201511 ], [ 258487.09266320176539, 7034282.990995611064136 ], [ 258482.089472611813108, 7034282.990995611064136 ], [ 258482.089472611813108, 7034277.987805020995438 ], [ 258477.086282021860825, 7034277.987805020995438 ], [ 258477.086282021860825, 7034262.978233250789344 ], [ 258482.089472611813108, 7034262.978233250789344 ], [ 258482.089472611813108, 7034257.975042660720646 ], [ 258487.09266320176539, 7034257.975042660720646 ], [ 258487.09266320176539, 7034247.968661480583251 ], [ 258492.095853791717673, 7034247.968661480583251 ], [ 258492.095853791717673, 7034242.965470891445875 ], [ 258497.099044381669955, 7034242.965470891445875 ], [ 258497.099044381669955, 7034237.962280301377177 ], [ 258502.102234971593134, 7034237.962280301377177 ], [ 258502.102234971593134, 7034227.955899121239781 ], [ 258507.105425561545417, 7034227.955899121239781 ], [ 258507.105425561545417, 7034217.949517941102386 ], [ 258512.108616151497699, 7034217.949517941102386 ], [ 258512.108616151497699, 7034212.946327351033688 ], [ 258517.111806741449982, 7034212.946327351033688 ], [ 258517.111806741449982, 7034207.943136761896312 ], [ 258522.114997331402265, 7034207.943136761896312 ], [ 258522.114997331402265, 7034192.933564991690218 ], [ 258527.118187921354547, 7034192.933564991690218 ], [ 258527.118187921354547, 7034187.930374401621521 ], [ 258532.121378511277726, 7034187.930374401621521 ], [ 258532.121378511277726, 7034182.927183811552823 ], [ 258537.124569101230009, 7034182.927183811552823 ], [ 258537.124569101230009, 7034172.920802631415427 ], [ 258547.130950281134574, 7034172.920802631415427 ], [ 258547.130950281134574, 7034167.917612042278051 ], [ 258552.134140871086856, 7034167.917612042278051 ], [ 258552.134140871086856, 7034162.914421452209353 ], [ 258557.137331461010035, 7034162.914421452209353 ], [ 258557.137331461010035, 7034157.911230862140656 ], [ 258567.1437126409146, 7034157.911230862140656 ], [ 258567.1437126409146, 7034152.908040272071958 ], [ 258572.146903230866883, 7034152.908040272071958 ], [ 258572.146903230866883, 7034147.90484968200326 ], [ 258577.150093820819166, 7034147.90484968200326 ], [ 258577.150093820819166, 7034142.901659091934562 ], [ 258587.156475000694627, 7034142.901659091934562 ], [ 258587.156475000694627, 7034137.898468501865864 ], [ 258597.162856180599192, 7034137.898468501865864 ], [ 258597.162856180599192, 7034132.895277911797166 ], [ 258602.166046770551475, 7034132.895277911797166 ], [ 258602.166046770551475, 7034127.892087322659791 ], [ 258617.175618540379219, 7034127.892087322659791 ], [ 258617.175618540379219, 7034137.898468501865864 ], [ 258622.178809130331501, 7034137.898468501865864 ], [ 258622.178809130331501, 7034142.901659091934562 ], [ 258627.181999720283784, 7034142.901659091934562 ], [ 258627.181999720283784, 7034137.898468501865864 ], [ 258632.185190310236067, 7034137.898468501865864 ], [ 258632.185190310236067, 7034132.895277911797166 ], [ 258642.191571490111528, 7034132.895277911797166 ], [ 258642.191571490111528, 7034152.908040272071958 ], [ 258637.188380900188349, 7034152.908040272071958 ], [ 258637.188380900188349, 7034157.911230862140656 ], [ 258627.181999720283784, 7034157.911230862140656 ], [ 258627.181999720283784, 7034162.914421452209353 ], [ 258602.166046770551475, 7034162.914421452209353 ], [ 258602.166046770551475, 7034167.917612042278051 ], [ 258582.153284410771448, 7034167.917612042278051 ], [ 258582.153284410771448, 7034172.920802631415427 ], [ 258577.150093820819166, 7034172.920802631415427 ], [ 258577.150093820819166, 7034177.923993221484125 ], [ 258572.146903230866883, 7034177.923993221484125 ], [ 258572.146903230866883, 7034182.927183811552823 ], [ 258567.1437126409146, 7034182.927183811552823 ], [ 258567.1437126409146, 7034197.936755581758916 ], [ 258572.146903230866883, 7034197.936755581758916 ], [ 258572.146903230866883, 7034192.933564991690218 ], [ 258577.150093820819166, 7034192.933564991690218 ], [ 258577.150093820819166, 7034187.930374401621521 ], [ 258582.153284410771448, 7034187.930374401621521 ], [ 258582.153284410771448, 7034182.927183811552823 ], [ 258602.166046770551475, 7034182.927183811552823 ], [ 258602.166046770551475, 7034177.923993221484125 ], [ 258627.181999720283784, 7034177.923993221484125 ], [ 258627.181999720283784, 7034182.927183811552823 ], [ 258632.185190310236067, 7034182.927183811552823 ], [ 258632.185190310236067, 7034187.930374401621521 ], [ 258627.181999720283784, 7034187.930374401621521 ], [ 258627.181999720283784, 7034197.936755581758916 ], [ 258622.178809130331501, 7034197.936755581758916 ], [ 258622.178809130331501, 7034207.943136761896312 ], [ 258617.175618540379219, 7034207.943136761896312 ], [ 258617.175618540379219, 7034212.946327351033688 ], [ 258612.172427950426936, 7034212.946327351033688 ], [ 258612.172427950426936, 7034227.955899121239781 ], [ 258617.175618540379219, 7034227.955899121239781 ], [ 258617.175618540379219, 7034232.959089711308479 ], [ 258622.178809130331501, 7034232.959089711308479 ], [ 258622.178809130331501, 7034227.955899121239781 ], [ 258627.181999720283784, 7034227.955899121239781 ], [ 258627.181999720283784, 7034217.949517941102386 ], [ 258632.185190310236067, 7034217.949517941102386 ], [ 258632.185190310236067, 7034212.946327351033688 ], [ 258637.188380900188349, 7034212.946327351033688 ], [ 258637.188380900188349, 7034207.943136761896312 ], [ 258642.191571490111528, 7034207.943136761896312 ], [ 258642.191571490111528, 7034202.939946171827614 ], [ 258647.194762080063811, 7034202.939946171827614 ], [ 258647.194762080063811, 7034197.936755581758916 ], [ 258652.197952670016093, 7034197.936755581758916 ], [ 258652.197952670016093, 7034177.923993221484125 ], [ 258657.201143259968376, 7034177.923993221484125 ], [ 258657.201143259968376, 7034172.920802631415427 ], [ 258662.204333849920658, 7034172.920802631415427 ], [ 258662.204333849920658, 7034167.917612042278051 ], [ 258672.21071502979612, 7034167.917612042278051 ], [ 258672.21071502979612, 7034142.901659091934562 ], [ 258677.213905619748402, 7034142.901659091934562 ], [ 258677.213905619748402, 7034107.879324962384999 ], [ 258682.217096209700685, 7034107.879324962384999 ], [ 258682.217096209700685, 7034092.869753193110228 ], [ 258692.22347738960525, 7034092.869753193110228 ], [ 258692.22347738960525, 7034087.86656260304153 ], [ 258707.233049159432994, 7034087.86656260304153 ], [ 258707.233049159432994, 7034082.863372012972832 ], [ 258722.242620929260738, 7034082.863372012972832 ], [ 258722.242620929260738, 7034077.860181422904134 ], [ 258742.255383289069869, 7034077.860181422904134 ], [ 258742.255383289069869, 7034072.856990832835436 ], [ 258762.268145648849895, 7034072.856990832835436 ], [ 258762.268145648849895, 7034067.853800242766738 ], [ 258782.280908008629922, 7034067.853800242766738 ], [ 258782.280908008629922, 7034062.85060965269804 ], [ 258832.31281390809454, 7034062.85060965269804 ], [ 258832.31281390809454, 7034067.853800242766738 ], [ 258837.316004498046823, 7034067.853800242766738 ], [ 258837.316004498046823, 7034072.856990832835436 ], [ 258842.319195087999105, 7034072.856990832835436 ], [ 258842.319195087999105, 7034087.86656260304153 ], [ 258847.322385677951388, 7034087.86656260304153 ], [ 258847.322385677951388, 7034102.876134372316301 ], [ 258852.325576267903671, 7034102.876134372316301 ], [ 258852.325576267903671, 7034112.882515552453697 ], [ 258862.331957447779132, 7034112.882515552453697 ], [ 258862.331957447779132, 7034117.885706142522395 ], [ 258867.335148037731415, 7034117.885706142522395 ], [ 258867.335148037731415, 7034132.895277911797166 ], [ 258872.338338627683697, 7034132.895277911797166 ], [ 258872.338338627683697, 7034162.914421452209353 ], [ 258877.34152921763598, 7034162.914421452209353 ], [ 258877.34152921763598, 7034172.920802631415427 ], [ 258882.344719807588262, 7034172.920802631415427 ], [ 258882.344719807588262, 7034177.923993221484125 ], [ 258887.347910397511441, 7034177.923993221484125 ], [ 258887.347910397511441, 7034182.927183811552823 ], [ 258892.351100987463724, 7034182.927183811552823 ], [ 258892.351100987463724, 7034187.930374401621521 ], [ 258897.354291577416006, 7034187.930374401621521 ], [ 258897.354291577416006, 7034192.933564991690218 ], [ 258902.357482167368289, 7034192.933564991690218 ], [ 258902.357482167368289, 7034197.936755581758916 ], [ 258912.363863347272854, 7034197.936755581758916 ], [ 258912.363863347272854, 7034202.939946171827614 ], [ 258917.367053937196033, 7034202.939946171827614 ], [ 258917.367053937196033, 7034207.943136761896312 ], [ 258927.373435117100598, 7034207.943136761896312 ], [ 258927.373435117100598, 7034212.946327351033688 ], [ 258932.376625707052881, 7034212.946327351033688 ], [ 258932.376625707052881, 7034217.949517941102386 ], [ 258937.379816297005164, 7034217.949517941102386 ], [ 258937.379816297005164, 7034227.955899121239781 ], [ 258942.383006886928342, 7034227.955899121239781 ], [ 258942.383006886928342, 7034247.968661480583251 ], [ 258947.386197476880625, 7034247.968661480583251 ], [ 258947.386197476880625, 7034262.978233250789344 ], [ 258942.383006886928342, 7034262.978233250789344 ], [ 258942.383006886928342, 7034272.98461443092674 ], [ 258947.386197476880625, 7034272.98461443092674 ], [ 258947.386197476880625, 7034303.003757970407605 ], [ 258957.39257865678519, 7034303.003757970407605 ], [ 258957.39257865678519, 7034298.000567380338907 ], [ 258977.405341016565217, 7034298.000567380338907 ], [ 258977.405341016565217, 7034303.003757970407605 ], [ 258982.408531606517499, 7034303.003757970407605 ], [ 258982.408531606517499, 7034308.006948560476303 ], [ 258987.411722196469782, 7034308.006948560476303 ], [ 258987.411722196469782, 7034318.013329740613699 ], [ 258992.414912786422065, 7034318.013329740613699 ], [ 258992.414912786422065, 7034323.016520330682397 ], [ 258997.418103376345243, 7034323.016520330682397 ], [ 258997.418103376345243, 7034333.02290150988847 ], [ 258992.414912786422065, 7034333.02290150988847 ], [ 258992.414912786422065, 7034338.026092099957168 ], [ 258987.411722196469782, 7034338.026092099957168 ], [ 258987.411722196469782, 7034348.032473280094564 ], [ 258997.418103376345243, 7034348.032473280094564 ], [ 258997.418103376345243, 7034343.029282690025866 ], [ 259022.434056326106656, 7034343.029282690025866 ], [ 259022.434056326106656, 7034368.045235639438033 ], [ 259027.437246916029835, 7034368.045235639438033 ], [ 259027.437246916029835, 7034383.054807409644127 ], [ 259032.440437505982118, 7034383.054807409644127 ], [ 259032.440437505982118, 7034393.061188589781523 ], [ 259037.4436280959344, 7034393.061188589781523 ], [ 259037.4436280959344, 7034403.067569768987596 ], [ 259042.446818685886683, 7034403.067569768987596 ], [ 259042.446818685886683, 7034413.073950949124992 ], [ 259032.440437505982118, 7034413.073950949124992 ], [ 259032.440437505982118, 7034418.07714153919369 ], [ 259027.437246916029835, 7034418.07714153919369 ], [ 259027.437246916029835, 7034428.083522719331086 ], [ 259022.434056326106656, 7034428.083522719331086 ], [ 259022.434056326106656, 7034433.086713309399784 ], [ 259017.430865736154374, 7034433.086713309399784 ], [ 259017.430865736154374, 7034443.093094488605857 ], [ 259012.427675146202091, 7034443.093094488605857 ], [ 259012.427675146202091, 7034448.096285078674555 ], [ 259002.421293966297526, 7034448.096285078674555 ], [ 259002.421293966297526, 7034453.099475668743253 ], [ 259007.424484556249809, 7034453.099475668743253 ], [ 259007.424484556249809, 7034458.102666258811951 ], [ 259012.427675146202091, 7034458.102666258811951 ], [ 259012.427675146202091, 7034463.105856848880649 ], [ 259017.430865736154374, 7034463.105856848880649 ], [ 259017.430865736154374, 7034468.109047438949347 ], [ 259022.434056326106656, 7034468.109047438949347 ], [ 259022.434056326106656, 7034473.112238029018044 ], [ 259027.437246916029835, 7034473.112238029018044 ], [ 259027.437246916029835, 7034478.11542861815542 ], [ 259032.440437505982118, 7034478.11542861815542 ], [ 259032.440437505982118, 7034473.112238029018044 ], [ 259037.4436280959344, 7034473.112238029018044 ], [ 259037.4436280959344, 7034468.109047438949347 ], [ 259047.450009275838966, 7034468.109047438949347 ], [ 259047.450009275838966, 7034463.105856848880649 ], [ 259062.45958104566671, 7034463.105856848880649 ], [ 259062.45958104566671, 7034458.102666258811951 ], [ 259077.469152815523557, 7034458.102666258811951 ], [ 259077.469152815523557, 7034453.099475668743253 ], [ 259087.475533995399019, 7034453.099475668743253 ], [ 259087.475533995399019, 7034448.096285078674555 ], [ 259092.478724585351301, 7034448.096285078674555 ], [ 259092.478724585351301, 7034453.099475668743253 ], [ 259117.494677535083611, 7034453.099475668743253 ], [ 259117.494677535083611, 7034463.105856848880649 ], [ 259122.497868125035893, 7034463.105856848880649 ], [ 259122.497868125035893, 7034468.109047438949347 ], [ 259132.504249304911355, 7034468.109047438949347 ], [ 259132.504249304911355, 7034488.121809798292816 ], [ 259137.507439894863637, 7034488.121809798292816 ], [ 259137.507439894863637, 7034503.131381568498909 ], [ 259142.51063048481592, 7034503.131381568498909 ], [ 259142.51063048481592, 7034513.137762748636305 ], [ 259147.513821074768202, 7034513.137762748636305 ], [ 259147.513821074768202, 7034498.128190978430212 ], [ 259152.517011664720485, 7034498.128190978430212 ], [ 259152.517011664720485, 7034488.121809798292816 ], [ 259157.520202254672768, 7034488.121809798292816 ], [ 259157.520202254672768, 7034483.118619208224118 ], [ 259182.536155204405077, 7034483.118619208224118 ], [ 259182.536155204405077, 7034488.121809798292816 ], [ 259207.552108154137386, 7034488.121809798292816 ], [ 259207.552108154137386, 7034493.125000388361514 ], [ 259217.558489334012847, 7034493.125000388361514 ], [ 259217.558489334012847, 7034488.121809798292816 ], [ 259227.564870513917413, 7034488.121809798292816 ], [ 259227.564870513917413, 7034478.11542861815542 ], [ 259217.558489334012847, 7034478.11542861815542 ], [ 259217.558489334012847, 7034473.112238029018044 ], [ 259202.548917564185103, 7034473.112238029018044 ], [ 259202.548917564185103, 7034478.11542861815542 ], [ 259187.539345794328256, 7034478.11542861815542 ], [ 259187.539345794328256, 7034473.112238029018044 ], [ 259177.532964614452794, 7034473.112238029018044 ], [ 259177.532964614452794, 7034468.109047438949347 ], [ 259172.529774024500512, 7034468.109047438949347 ], [ 259172.529774024500512, 7034463.105856848880649 ], [ 259162.523392844595946, 7034463.105856848880649 ], [ 259162.523392844595946, 7034458.102666258811951 ], [ 259157.520202254672768, 7034458.102666258811951 ], [ 259157.520202254672768, 7034453.099475668743253 ], [ 259152.517011664720485, 7034453.099475668743253 ], [ 259152.517011664720485, 7034443.093094488605857 ], [ 259147.513821074768202, 7034443.093094488605857 ], [ 259147.513821074768202, 7034438.089903898537159 ], [ 259142.51063048481592, 7034438.089903898537159 ], [ 259142.51063048481592, 7034408.070760359056294 ], [ 259147.513821074768202, 7034408.070760359056294 ], [ 259147.513821074768202, 7034403.067569768987596 ], [ 259152.517011664720485, 7034403.067569768987596 ], [ 259152.517011664720485, 7034393.061188589781523 ], [ 259157.520202254672768, 7034393.061188589781523 ], [ 259157.520202254672768, 7034388.057997999712825 ], [ 259162.523392844595946, 7034388.057997999712825 ], [ 259162.523392844595946, 7034378.051616819575429 ], [ 259167.526583434548229, 7034378.051616819575429 ], [ 259167.526583434548229, 7034368.045235639438033 ], [ 259172.529774024500512, 7034368.045235639438033 ], [ 259172.529774024500512, 7034358.03885446023196 ], [ 259177.532964614452794, 7034358.03885446023196 ], [ 259177.532964614452794, 7034348.032473280094564 ], [ 259182.536155204405077, 7034348.032473280094564 ], [ 259182.536155204405077, 7034338.026092099957168 ], [ 259187.539345794328256, 7034338.026092099957168 ], [ 259187.539345794328256, 7034333.02290150988847 ], [ 259197.545726974232821, 7034333.02290150988847 ], [ 259197.545726974232821, 7034318.013329740613699 ], [ 259202.548917564185103, 7034318.013329740613699 ], [ 259202.548917564185103, 7034308.006948560476303 ], [ 259207.552108154137386, 7034308.006948560476303 ], [ 259207.552108154137386, 7034298.000567380338907 ], [ 259212.555298744089669, 7034298.000567380338907 ], [ 259212.555298744089669, 7034287.994186200201511 ], [ 259217.558489334012847, 7034287.994186200201511 ], [ 259217.558489334012847, 7034282.990995611064136 ], [ 259222.56167992396513, 7034282.990995611064136 ], [ 259222.56167992396513, 7034267.981423840858042 ], [ 259217.558489334012847, 7034267.981423840858042 ], [ 259217.558489334012847, 7034262.978233250789344 ], [ 259212.555298744089669, 7034262.978233250789344 ], [ 259212.555298744089669, 7034252.971852070651948 ], [ 259207.552108154137386, 7034252.971852070651948 ], [ 259207.552108154137386, 7034242.965470891445875 ], [ 259202.548917564185103, 7034242.965470891445875 ], [ 259202.548917564185103, 7034232.959089711308479 ], [ 259197.545726974232821, 7034232.959089711308479 ], [ 259197.545726974232821, 7034227.955899121239781 ], [ 259192.542536384280538, 7034227.955899121239781 ], [ 259192.542536384280538, 7034222.952708531171083 ], [ 259187.539345794328256, 7034222.952708531171083 ], [ 259187.539345794328256, 7034207.943136761896312 ], [ 259197.545726974232821, 7034207.943136761896312 ], [ 259197.545726974232821, 7034202.939946171827614 ], [ 259207.552108154137386, 7034202.939946171827614 ], [ 259207.552108154137386, 7034197.936755581758916 ], [ 259212.555298744089669, 7034197.936755581758916 ], [ 259212.555298744089669, 7034192.933564991690218 ], [ 259217.558489334012847, 7034192.933564991690218 ], [ 259217.558489334012847, 7034182.927183811552823 ], [ 259222.56167992396513, 7034182.927183811552823 ], [ 259222.56167992396513, 7034177.923993221484125 ], [ 259227.564870513917413, 7034177.923993221484125 ], [ 259227.564870513917413, 7034172.920802631415427 ], [ 259232.568061103869695, 7034172.920802631415427 ], [ 259232.568061103869695, 7034162.914421452209353 ], [ 259282.599967003334314, 7034162.914421452209353 ], [ 259282.599967003334314, 7034167.917612042278051 ], [ 259292.606348183238879, 7034167.917612042278051 ], [ 259292.606348183238879, 7034172.920802631415427 ], [ 259297.609538773162058, 7034172.920802631415427 ], [ 259297.609538773162058, 7034177.923993221484125 ], [ 259302.61272936311434, 7034177.923993221484125 ], [ 259302.61272936311434, 7034182.927183811552823 ], [ 259317.622301132971188, 7034182.927183811552823 ], [ 259317.622301132971188, 7034177.923993221484125 ], [ 259322.625491722923471, 7034177.923993221484125 ], [ 259322.625491722923471, 7034172.920802631415427 ], [ 259332.631872902798932, 7034172.920802631415427 ], [ 259332.631872902798932, 7034177.923993221484125 ], [ 259342.638254082703497, 7034177.923993221484125 ], [ 259342.638254082703497, 7034182.927183811552823 ], [ 259352.644635262578959, 7034182.927183811552823 ], [ 259352.644635262578959, 7034187.930374401621521 ], [ 259357.647825852531241, 7034187.930374401621521 ], [ 259357.647825852531241, 7034192.933564991690218 ], [ 259367.654207032435806, 7034192.933564991690218 ], [ 259367.654207032435806, 7034197.936755581758916 ], [ 259372.657397622388089, 7034197.936755581758916 ], [ 259372.657397622388089, 7034207.943136761896312 ], [ 259377.660588212340372, 7034207.943136761896312 ], [ 259377.660588212340372, 7034212.946327351033688 ], [ 259382.66377880226355, 7034212.946327351033688 ], [ 259382.66377880226355, 7034217.949517941102386 ], [ 259387.666969392215833, 7034217.949517941102386 ], [ 259387.666969392215833, 7034222.952708531171083 ], [ 259392.670159982168116, 7034222.952708531171083 ], [ 259392.670159982168116, 7034232.959089711308479 ], [ 259397.673350572120398, 7034232.959089711308479 ], [ 259397.673350572120398, 7034247.968661480583251 ], [ 259402.676541162072681, 7034247.968661480583251 ], [ 259402.676541162072681, 7034257.975042660720646 ], [ 259407.67973175199586, 7034257.975042660720646 ], [ 259407.67973175199586, 7034262.978233250789344 ], [ 259412.682922341948142, 7034262.978233250789344 ], [ 259412.682922341948142, 7034267.981423840858042 ], [ 259417.686112931900425, 7034267.981423840858042 ], [ 259417.686112931900425, 7034262.978233250789344 ], [ 259437.698875291680451, 7034262.978233250789344 ], [ 259437.698875291680451, 7034272.98461443092674 ], [ 259447.705256471585017, 7034272.98461443092674 ], [ 259447.705256471585017, 7034267.981423840858042 ], [ 259442.702065881632734, 7034267.981423840858042 ], [ 259442.702065881632734, 7034262.978233250789344 ], [ 259457.711637651489582, 7034262.978233250789344 ], [ 259457.711637651489582, 7034267.981423840858042 ], [ 259462.714828241412761, 7034267.981423840858042 ], [ 259462.714828241412761, 7034272.98461443092674 ], [ 259467.718018831365043, 7034272.98461443092674 ], [ 259467.718018831365043, 7034277.987805020995438 ], [ 259472.721209421317326, 7034277.987805020995438 ], [ 259472.721209421317326, 7034282.990995611064136 ], [ 259477.724400011269609, 7034282.990995611064136 ], [ 259477.724400011269609, 7034292.997376790270209 ], [ 259482.727590601221891, 7034292.997376790270209 ], [ 259482.727590601221891, 7034298.000567380338907 ], [ 259487.730781191174174, 7034298.000567380338907 ], [ 259487.730781191174174, 7034303.003757970407605 ], [ 259492.733971781097353, 7034303.003757970407605 ], [ 259492.733971781097353, 7034308.006948560476303 ], [ 259497.737162371049635, 7034308.006948560476303 ], [ 259497.737162371049635, 7034313.010139150545001 ], [ 259507.7435435509542, 7034313.010139150545001 ], [ 259507.7435435509542, 7034323.016520330682397 ], [ 259512.746734140906483, 7034323.016520330682397 ], [ 259512.746734140906483, 7034338.026092099957168 ], [ 259517.749924730829662, 7034338.026092099957168 ], [ 259517.749924730829662, 7034348.032473280094564 ], [ 259522.753115320781944, 7034348.032473280094564 ], [ 259522.753115320781944, 7034358.03885446023196 ], [ 259527.756305910734227, 7034358.03885446023196 ], [ 259527.756305910734227, 7034363.042045049369335 ], [ 259532.75949650068651, 7034363.042045049369335 ], [ 259532.75949650068651, 7034373.048426229506731 ], [ 259537.762687090638792, 7034373.048426229506731 ], [ 259537.762687090638792, 7034378.051616819575429 ], [ 259542.765877680591075, 7034378.051616819575429 ], [ 259542.765877680591075, 7034393.061188589781523 ], [ 259547.769068270514254, 7034393.061188589781523 ], [ 259547.769068270514254, 7034408.070760359056294 ], [ 259552.772258860466536, 7034408.070760359056294 ], [ 259552.772258860466536, 7034423.080332129262388 ], [ 259557.775449450418819, 7034423.080332129262388 ], [ 259557.775449450418819, 7034438.089903898537159 ], [ 259562.778640040371101, 7034438.089903898537159 ], [ 259562.778640040371101, 7034458.102666258811951 ], [ 259567.781830630323384, 7034458.102666258811951 ], [ 259567.781830630323384, 7034473.112238029018044 ], [ 259572.785021220246563, 7034473.112238029018044 ], [ 259572.785021220246563, 7034498.128190978430212 ], [ 259577.788211810198845, 7034498.128190978430212 ], [ 259577.788211810198845, 7034513.137762748636305 ], [ 259572.785021220246563, 7034513.137762748636305 ], [ 259572.785021220246563, 7034518.140953337773681 ], [ 259577.788211810198845, 7034518.140953337773681 ], [ 259577.788211810198845, 7034548.160096878185868 ], [ 259582.791402400151128, 7034548.160096878185868 ], [ 259582.791402400151128, 7034573.176049827598035 ], [ 259587.794592990103411, 7034573.176049827598035 ], [ 259587.794592990103411, 7034583.182431007735431 ], [ 259592.797783580055693, 7034583.182431007735431 ], [ 259592.797783580055693, 7034598.192002777010202 ], [ 259597.800974170007976, 7034598.192002777010202 ], [ 259597.800974170007976, 7034603.1951933670789 ], [ 259592.797783580055693, 7034603.1951933670789 ], [ 259592.797783580055693, 7034613.201574547216296 ], [ 259597.800974170007976, 7034613.201574547216296 ], [ 259597.800974170007976, 7034618.204765137284994 ], [ 259602.804164759931155, 7034618.204765137284994 ], [ 259602.804164759931155, 7034623.207955727353692 ], [ 259607.807355349883437, 7034623.207955727353692 ], [ 259607.807355349883437, 7034618.204765137284994 ], [ 259612.81054593983572, 7034618.204765137284994 ], [ 259612.81054593983572, 7034613.201574547216296 ], [ 259622.816927119740285, 7034613.201574547216296 ], [ 259622.816927119740285, 7034603.1951933670789 ], [ 259627.820117709663464, 7034603.1951933670789 ], [ 259627.820117709663464, 7034598.192002777010202 ], [ 259632.823308299615746, 7034598.192002777010202 ], [ 259632.823308299615746, 7034593.188812186941504 ], [ 259642.829689479520312, 7034593.188812186941504 ], [ 259642.829689479520312, 7034578.179240417666733 ], [ 259637.826498889568029, 7034578.179240417666733 ], [ 259637.826498889568029, 7034573.176049827598035 ], [ 259647.832880069472594, 7034573.176049827598035 ], [ 259647.832880069472594, 7034578.179240417666733 ], [ 259662.842451839300338, 7034578.179240417666733 ], [ 259662.842451839300338, 7034573.176049827598035 ], [ 259667.845642429252621, 7034573.176049827598035 ], [ 259667.845642429252621, 7034568.172859237529337 ], [ 259687.858404789032647, 7034568.172859237529337 ], [ 259687.858404789032647, 7034563.169668647460639 ], [ 259692.86159537898493, 7034563.169668647460639 ], [ 259692.86159537898493, 7034558.166478057391942 ], [ 259702.867976558889495, 7034558.166478057391942 ], [ 259702.867976558889495, 7034553.163287467323244 ], [ 259712.874357738764957, 7034553.163287467323244 ], [ 259712.874357738764957, 7034548.160096878185868 ], [ 259732.887120098574087, 7034548.160096878185868 ], [ 259732.887120098574087, 7034543.15690628811717 ], [ 259737.890310688497266, 7034543.15690628811717 ], [ 259737.890310688497266, 7034538.153715698048472 ], [ 259747.896691868401831, 7034538.153715698048472 ], [ 259747.896691868401831, 7034528.147334517911077 ], [ 259757.903073048306396, 7034528.147334517911077 ], [ 259757.903073048306396, 7034523.144143927842379 ], [ 259767.909454228181858, 7034523.144143927842379 ], [ 259767.909454228181858, 7034518.140953337773681 ], [ 259782.919025998038705, 7034518.140953337773681 ], [ 259782.919025998038705, 7034513.137762748636305 ], [ 259797.928597767866449, 7034513.137762748636305 ], [ 259797.928597767866449, 7034503.131381568498909 ], [ 259802.931788357818732, 7034503.131381568498909 ], [ 259802.931788357818732, 7034493.125000388361514 ], [ 259807.934978947771015, 7034493.125000388361514 ], [ 259807.934978947771015, 7034488.121809798292816 ], [ 259812.938169537723297, 7034488.121809798292816 ], [ 259812.938169537723297, 7034483.118619208224118 ], [ 259817.94136012767558, 7034483.118619208224118 ], [ 259817.94136012767558, 7034478.11542861815542 ], [ 259827.947741307551041, 7034478.11542861815542 ], [ 259827.947741307551041, 7034473.112238029018044 ], [ 259837.954122487455606, 7034473.112238029018044 ], [ 259837.954122487455606, 7034468.109047438949347 ], [ 259857.966884847235633, 7034468.109047438949347 ], [ 259857.966884847235633, 7034463.105856848880649 ], [ 259877.97964720701566, 7034463.105856848880649 ], [ 259877.97964720701566, 7034458.102666258811951 ], [ 259887.986028386920225, 7034458.102666258811951 ], [ 259887.986028386920225, 7034453.099475668743253 ], [ 259892.989218976872507, 7034453.099475668743253 ], [ 259892.989218976872507, 7034448.096285078674555 ], [ 259902.995600156747969, 7034448.096285078674555 ], [ 259902.995600156747969, 7034443.093094488605857 ], [ 259913.001981336652534, 7034443.093094488605857 ], [ 259913.001981336652534, 7034438.089903898537159 ], [ 259918.005171926604817, 7034438.089903898537159 ], [ 259918.005171926604817, 7034433.086713309399784 ], [ 259928.011553106509382, 7034433.086713309399784 ], [ 259928.011553106509382, 7034428.083522719331086 ], [ 259933.014743696432561, 7034428.083522719331086 ], [ 259933.014743696432561, 7034418.07714153919369 ], [ 259943.021124876337126, 7034418.07714153919369 ], [ 259943.021124876337126, 7034413.073950949124992 ], [ 259953.027506056241691, 7034413.073950949124992 ], [ 259953.027506056241691, 7034408.070760359056294 ], [ 259958.03069664616487, 7034408.070760359056294 ], [ 259958.03069664616487, 7034403.067569768987596 ], [ 259963.033887236117152, 7034403.067569768987596 ], [ 259963.033887236117152, 7034398.064379179850221 ], [ 259968.037077826069435, 7034398.064379179850221 ], [ 259968.037077826069435, 7034393.061188589781523 ], [ 259973.040268416021718, 7034393.061188589781523 ], [ 259973.040268416021718, 7034388.057997999712825 ], [ 259978.043459005974, 7034388.057997999712825 ], [ 259978.043459005974, 7034378.051616819575429 ], [ 259983.046649595926283, 7034378.051616819575429 ], [ 259983.046649595926283, 7034373.048426229506731 ], [ 259988.049840185849462, 7034373.048426229506731 ], [ 259988.049840185849462, 7034368.045235639438033 ], [ 259993.053030775801744, 7034368.045235639438033 ], [ 259993.053030775801744, 7034373.048426229506731 ], [ 259998.056221365754027, 7034373.048426229506731 ], [ 259998.056221365754027, 7034368.045235639438033 ], [ 260003.05941195570631, 7034368.045235639438033 ], [ 260003.05941195570631, 7034363.042045049369335 ], [ 260008.062602545658592, 7034363.042045049369335 ], [ 260008.062602545658592, 7034358.03885446023196 ], [ 260013.065793135581771, 7034358.03885446023196 ], [ 260013.065793135581771, 7034348.032473280094564 ], [ 260018.068983725534054, 7034348.032473280094564 ], [ 260018.068983725534054, 7034343.029282690025866 ], [ 260023.072174315486336, 7034343.029282690025866 ], [ 260023.072174315486336, 7034338.026092099957168 ], [ 260028.075364905438619, 7034338.026092099957168 ], [ 260028.075364905438619, 7034333.02290150988847 ], [ 260033.078555495390901, 7034333.02290150988847 ], [ 260033.078555495390901, 7034328.019710919819772 ], [ 260038.081746085343184, 7034328.019710919819772 ], [ 260038.081746085343184, 7034323.016520330682397 ], [ 260043.084936675266363, 7034323.016520330682397 ], [ 260043.084936675266363, 7034318.013329740613699 ], [ 260053.091317855170928, 7034318.013329740613699 ], [ 260053.091317855170928, 7034313.010139150545001 ], [ 260058.094508445123211, 7034313.010139150545001 ], [ 260058.094508445123211, 7034308.006948560476303 ], [ 260068.100889624998672, 7034308.006948560476303 ], [ 260068.100889624998672, 7034303.003757970407605 ], [ 260078.107270804903237, 7034303.003757970407605 ], [ 260078.107270804903237, 7034298.000567380338907 ], [ 260098.120033164683264, 7034298.000567380338907 ], [ 260098.120033164683264, 7034292.997376790270209 ], [ 260108.126414344587829, 7034292.997376790270209 ], [ 260108.126414344587829, 7034287.994186200201511 ], [ 260113.129604934540112, 7034287.994186200201511 ], [ 260113.129604934540112, 7034282.990995611064136 ], [ 260118.132795524492394, 7034282.990995611064136 ], [ 260118.132795524492394, 7034272.98461443092674 ], [ 260123.135986114415573, 7034272.98461443092674 ], [ 260123.135986114415573, 7034267.981423840858042 ], [ 260128.139176704367856, 7034267.981423840858042 ], [ 260128.139176704367856, 7034262.978233250789344 ], [ 260133.142367294320138, 7034262.978233250789344 ], [ 260133.142367294320138, 7034257.975042660720646 ], [ 260138.145557884272421, 7034257.975042660720646 ], [ 260138.145557884272421, 7034252.971852070651948 ], [ 260143.148748474224703, 7034252.971852070651948 ], [ 260143.148748474224703, 7034247.968661480583251 ], [ 260158.158320244052447, 7034247.968661480583251 ], [ 260158.158320244052447, 7034242.965470891445875 ], [ 260163.16151083400473, 7034242.965470891445875 ], [ 260163.16151083400473, 7034237.962280301377177 ], [ 260178.171082603832474, 7034237.962280301377177 ], [ 260178.171082603832474, 7034232.959089711308479 ], [ 260188.177463783737039, 7034232.959089711308479 ], [ 260188.177463783737039, 7034227.955899121239781 ], [ 260193.180654373689322, 7034227.955899121239781 ], [ 260193.180654373689322, 7034222.952708531171083 ], [ 260213.193416733469348, 7034222.952708531171083 ], [ 260213.193416733469348, 7034217.949517941102386 ], [ 260248.215750863106223, 7034217.949517941102386 ], [ 260248.215750863106223, 7034212.946327351033688 ], [ 260253.218941453058505, 7034212.946327351033688 ], [ 260253.218941453058505, 7034207.943136761896312 ], [ 260263.225322632933967, 7034207.943136761896312 ], [ 260263.225322632933967, 7034202.939946171827614 ], [ 260278.234894402790815, 7034202.939946171827614 ], [ 260278.234894402790815, 7034197.936755581758916 ], [ 260283.238084992743097, 7034197.936755581758916 ], [ 260283.238084992743097, 7034192.933564991690218 ], [ 260353.282753251987742, 7034192.933564991690218 ], [ 260353.282753251987742, 7034187.930374401621521 ], [ 260373.295515611767769, 7034187.930374401621521 ], [ 260373.295515611767769, 7034182.927183811552823 ], [ 260393.308277971576899, 7034182.927183811552823 ], [ 260393.308277971576899, 7034177.923993221484125 ], [ 260403.314659151452361, 7034177.923993221484125 ], [ 260403.314659151452361, 7034172.920802631415427 ], [ 260408.317849741404643, 7034172.920802631415427 ], [ 260408.317849741404643, 7034162.914421452209353 ], [ 260413.321040331356926, 7034162.914421452209353 ], [ 260413.321040331356926, 7034157.911230862140656 ], [ 260418.324230921309208, 7034157.911230862140656 ], [ 260418.324230921309208, 7034162.914421452209353 ], [ 260423.327421511261491, 7034162.914421452209353 ], [ 260423.327421511261491, 7034167.917612042278051 ], [ 260428.33061210118467, 7034167.917612042278051 ], [ 260428.33061210118467, 7034172.920802631415427 ], [ 260433.333802691136952, 7034172.920802631415427 ], [ 260433.333802691136952, 7034177.923993221484125 ], [ 260438.336993281089235, 7034177.923993221484125 ], [ 260438.336993281089235, 7035073.495108822360635 ], [ 260433.333802691136952, 7035073.495108822360635 ], [ 260433.333802691136952, 7035078.498299412429333 ], [ 260428.33061210118467, 7035078.498299412429333 ], [ 260428.33061210118467, 7035083.501490002498031 ], [ 260423.327421511261491, 7035083.501490002498031 ], [ 260423.327421511261491, 7035088.504680592566729 ], [ 260418.324230921309208, 7035088.504680592566729 ], [ 260418.324230921309208, 7035093.507871181704104 ], [ 260413.321040331356926, 7035093.507871181704104 ], [ 260413.321040331356926, 7035098.511061771772802 ], [ 260408.317849741404643, 7035098.511061771772802 ], [ 260408.317849741404643, 7035103.5142523618415 ], [ 260403.314659151452361, 7035103.5142523618415 ], [ 260403.314659151452361, 7035108.517442951910198 ], [ 260398.311468561500078, 7035108.517442951910198 ], [ 260398.311468561500078, 7035113.520633541978896 ], [ 260393.308277971576899, 7035113.520633541978896 ], [ 260393.308277971576899, 7035118.523824132047594 ], [ 260388.305087381624617, 7035118.523824132047594 ], [ 260388.305087381624617, 7035123.527014722116292 ], [ 260383.301896791672334, 7035123.527014722116292 ], [ 260383.301896791672334, 7035128.530205311253667 ], [ 260378.298706201720051, 7035128.530205311253667 ], [ 260378.298706201720051, 7035133.533395901322365 ], [ 260373.295515611767769, 7035133.533395901322365 ], [ 260373.295515611767769, 7035138.536586491391063 ], [ 260368.29232502184459, 7035138.536586491391063 ], [ 260368.29232502184459, 7035143.539777081459761 ], [ 260363.289134431892307, 7035143.539777081459761 ], [ 260363.289134431892307, 7035148.542967671528459 ], [ 260358.285943841940025, 7035148.542967671528459 ], [ 260358.285943841940025, 7035153.546158261597157 ], [ 260353.282753251987742, 7035153.546158261597157 ], [ 260353.282753251987742, 7035158.549348851665854 ], [ 260348.27956266203546, 7035158.549348851665854 ], [ 260348.27956266203546, 7035163.552539441734552 ], [ 260343.276372072083177, 7035163.552539441734552 ], [ 260343.276372072083177, 7035168.555730030871928 ], [ 260338.273181482159998, 7035168.555730030871928 ], [ 260338.273181482159998, 7035173.558920620940626 ], [ 260333.269990892207716, 7035173.558920620940626 ], [ 260333.269990892207716, 7035178.562111211009324 ], [ 260328.266800302255433, 7035178.562111211009324 ], [ 260328.266800302255433, 7035183.565301801078022 ], [ 260323.26360971230315, 7035183.565301801078022 ], [ 260323.26360971230315, 7035188.568492391146719 ], [ 260318.260419122350868, 7035188.568492391146719 ], [ 260318.260419122350868, 7035193.571682981215417 ], [ 260313.257228532427689, 7035193.571682981215417 ], [ 260313.257228532427689, 7035198.574873571284115 ], [ 260308.254037942475406, 7035198.574873571284115 ], [ 260308.254037942475406, 7035203.578064160421491 ], [ 260303.250847352523124, 7035203.578064160421491 ], [ 260303.250847352523124, 7035208.581254750490189 ], [ 260298.247656762570841, 7035208.581254750490189 ], [ 260298.247656762570841, 7035213.584445340558887 ], [ 260293.244466172618559, 7035213.584445340558887 ], [ 260293.244466172618559, 7035218.587635930627584 ], [ 260288.241275582666276, 7035218.587635930627584 ], [ 260288.241275582666276, 7035223.590826520696282 ], [ 260283.238084992743097, 7035223.590826520696282 ], [ 260283.238084992743097, 7035228.59401711076498 ], [ 260278.234894402790815, 7035228.59401711076498 ], [ 260278.234894402790815, 7035233.597207700833678 ], [ 260273.231703812838532, 7035233.597207700833678 ], [ 260273.231703812838532, 7035238.600398290902376 ], [ 260268.228513222886249, 7035238.600398290902376 ], [ 260268.228513222886249, 7035243.603588880039752 ], [ 260263.225322632933967, 7035243.603588880039752 ], [ 260263.225322632933967, 7035248.606779470108449 ], [ 260258.222132043010788, 7035248.606779470108449 ], [ 260258.222132043010788, 7035253.609970060177147 ], [ 260253.218941453058505, 7035253.609970060177147 ], [ 260253.218941453058505, 7035258.613160650245845 ], [ 260248.215750863106223, 7035258.613160650245845 ], [ 260248.215750863106223, 7035263.616351240314543 ], [ 260243.21256027315394, 7035263.616351240314543 ], [ 260243.21256027315394, 7035268.619541830383241 ], [ 260238.209369683201658, 7035268.619541830383241 ], [ 260238.209369683201658, 7035273.622732420451939 ], [ 260233.206179093249375, 7035273.622732420451939 ], [ 260233.206179093249375, 7035278.625923010520637 ], [ 260228.202988503326196, 7035278.625923010520637 ], [ 260228.202988503326196, 7035283.629113599658012 ], [ 260223.199797913373914, 7035283.629113599658012 ], [ 260223.199797913373914, 7035288.63230418972671 ], [ 260218.196607323421631, 7035288.63230418972671 ], [ 260218.196607323421631, 7035293.635494779795408 ], [ 260213.193416733469348, 7035293.635494779795408 ], [ 260213.193416733469348, 7035298.638685369864106 ], [ 260208.190226143517066, 7035298.638685369864106 ], [ 260208.190226143517066, 7035303.641875959932804 ], [ 260203.187035553593887, 7035303.641875959932804 ], [ 260203.187035553593887, 7035308.645066550001502 ], [ 260198.183844963641604, 7035308.645066550001502 ], [ 260198.183844963641604, 7035313.6482571400702 ], [ 260193.180654373689322, 7035313.6482571400702 ], [ 260193.180654373689322, 7035318.651447729207575 ], [ 260188.177463783737039, 7035318.651447729207575 ], [ 260188.177463783737039, 7035323.654638319276273 ], [ 260183.174273193784757, 7035323.654638319276273 ], [ 260183.174273193784757, 7035328.657828909344971 ], [ 260178.171082603832474, 7035328.657828909344971 ], [ 260178.171082603832474, 7035333.661019499413669 ], [ 260173.167892013909295, 7035333.661019499413669 ], [ 260173.167892013909295, 7035338.664210089482367 ], [ 260168.164701423957013, 7035338.664210089482367 ], [ 260168.164701423957013, 7035343.667400679551065 ], [ 260163.16151083400473, 7035343.667400679551065 ], [ 260163.16151083400473, 7035348.670591269619763 ], [ 260158.158320244052447, 7035348.670591269619763 ], [ 260158.158320244052447, 7035353.673781859688461 ], [ 260153.155129654100165, 7035353.673781859688461 ], [ 260153.155129654100165, 7035358.676972448825836 ], [ 260148.151939064176986, 7035358.676972448825836 ], [ 260148.151939064176986, 7035363.680163038894534 ], [ 260143.148748474224703, 7035363.680163038894534 ], [ 260143.148748474224703, 7035368.683353628963232 ], [ 260138.145557884272421, 7035368.683353628963232 ], [ 260138.145557884272421, 7035373.68654421903193 ], [ 260133.142367294320138, 7035373.68654421903193 ], [ 260133.142367294320138, 7035378.689734809100628 ], [ 260128.139176704367856, 7035378.689734809100628 ], [ 260128.139176704367856, 7035383.692925399169326 ], [ 260123.135986114415573, 7035383.692925399169326 ], [ 260123.135986114415573, 7035388.696115989238024 ], [ 260118.132795524492394, 7035388.696115989238024 ], [ 260118.132795524492394, 7035393.699306579306722 ], [ 260113.129604934540112, 7035393.699306579306722 ], [ 260113.129604934540112, 7035398.702497168444097 ], [ 260108.126414344587829, 7035398.702497168444097 ], [ 260108.126414344587829, 7035403.705687758512795 ], [ 260103.123223754635546, 7035403.705687758512795 ], [ 260103.123223754635546, 7035408.708878348581493 ], [ 260098.120033164683264, 7035408.708878348581493 ], [ 260098.120033164683264, 7035413.712068938650191 ], [ 260093.116842574760085, 7035413.712068938650191 ], [ 260093.116842574760085, 7035418.715259528718889 ], [ 260088.113651984807802, 7035418.715259528718889 ], [ 260088.113651984807802, 7035423.718450118787587 ], [ 260083.11046139485552, 7035423.718450118787587 ], [ 260083.11046139485552, 7035428.721640708856285 ], [ 260078.107270804903237, 7035428.721640708856285 ], [ 260078.107270804903237, 7035433.72483129799366 ], [ 260073.104080214950955, 7035433.72483129799366 ], [ 260073.104080214950955, 7035438.728021888062358 ], [ 260068.100889624998672, 7035438.728021888062358 ], [ 260068.100889624998672, 7035443.731212478131056 ], [ 260063.097699035075493, 7035443.731212478131056 ], [ 260063.097699035075493, 7035448.734403068199754 ], [ 260058.094508445123211, 7035448.734403068199754 ], [ 260058.094508445123211, 7035453.737593658268452 ], [ 260053.091317855170928, 7035453.737593658268452 ], [ 260053.091317855170928, 7035458.74078424833715 ], [ 260048.088127265218645, 7035458.74078424833715 ], [ 260048.088127265218645, 7035463.743974838405848 ], [ 260043.084936675266363, 7035463.743974838405848 ], [ 260043.084936675266363, 7035468.747165428474545 ], [ 260038.081746085343184, 7035468.747165428474545 ], [ 260038.081746085343184, 7035473.750356017611921 ], [ 260033.078555495390901, 7035473.750356017611921 ], [ 260033.078555495390901, 7035478.753546607680619 ], [ 260028.075364905438619, 7035478.753546607680619 ], [ 260028.075364905438619, 7035483.756737197749317 ], [ 260023.072174315486336, 7035483.756737197749317 ], [ 260023.072174315486336, 7035488.759927787818015 ], [ 260018.068983725534054, 7035488.759927787818015 ], [ 260018.068983725534054, 7035493.763118377886713 ], [ 260013.065793135581771, 7035493.763118377886713 ], [ 260013.065793135581771, 7035498.76630896795541 ], [ 260008.062602545658592, 7035498.76630896795541 ], [ 260008.062602545658592, 7035503.769499558024108 ], [ 260003.05941195570631, 7035503.769499558024108 ], [ 260003.05941195570631, 7035508.772690148092806 ], [ 259998.056221365754027, 7035508.772690148092806 ], [ 259998.056221365754027, 7035513.775880737230182 ], [ 259993.053030775801744, 7035513.775880737230182 ], [ 259993.053030775801744, 7035518.77907132729888 ], [ 259988.049840185849462, 7035518.77907132729888 ], [ 259988.049840185849462, 7035523.782261917367578 ], [ 259983.046649595926283, 7035523.782261917367578 ], [ 259983.046649595926283, 7035528.785452507436275 ], [ 259978.043459005974, 7035528.785452507436275 ], [ 259978.043459005974, 7035533.788643097504973 ], [ 259973.040268416021718, 7035533.788643097504973 ], [ 259973.040268416021718, 7035538.791833687573671 ], [ 259968.037077826069435, 7035538.791833687573671 ], [ 259968.037077826069435, 7035543.795024277642369 ], [ 259963.033887236117152, 7035543.795024277642369 ], [ 259963.033887236117152, 7035548.798214866779745 ], [ 259958.03069664616487, 7035548.798214866779745 ], [ 259958.03069664616487, 7035553.801405456848443 ], [ 259953.027506056241691, 7035553.801405456848443 ], [ 259953.027506056241691, 7035558.80459604691714 ], [ 259948.024315466289409, 7035558.80459604691714 ], [ 259948.024315466289409, 7035563.807786636985838 ], [ 259943.021124876337126, 7035563.807786636985838 ], [ 259943.021124876337126, 7035568.810977227054536 ], [ 259938.017934286384843, 7035568.810977227054536 ], [ 259938.017934286384843, 7035573.814167817123234 ], [ 259933.014743696432561, 7035573.814167817123234 ], [ 259933.014743696432561, 7035578.817358407191932 ], [ 259928.011553106509382, 7035578.817358407191932 ], [ 259928.011553106509382, 7035583.82054899726063 ], [ 259923.008362516557099, 7035583.82054899726063 ], [ 259923.008362516557099, 7035588.823739586398005 ], [ 259918.005171926604817, 7035588.823739586398005 ], [ 259918.005171926604817, 7035593.826930176466703 ], [ 259913.001981336652534, 7035593.826930176466703 ], [ 259913.001981336652534, 7035598.830120766535401 ], [ 259907.998790746700251, 7035598.830120766535401 ], [ 259907.998790746700251, 7035603.833311356604099 ], [ 259902.995600156747969, 7035603.833311356604099 ], [ 259902.995600156747969, 7035608.836501946672797 ], [ 259897.99240956682479, 7035608.836501946672797 ], [ 259897.99240956682479, 7035613.839692536741495 ], [ 259892.989218976872507, 7035613.839692536741495 ], [ 259892.989218976872507, 7035618.842883126810193 ], [ 259887.986028386920225, 7035618.842883126810193 ], [ 259887.986028386920225, 7035623.846073716878891 ], [ 259882.982837796967942, 7035623.846073716878891 ], [ 259882.982837796967942, 7035628.849264306016266 ], [ 259877.97964720701566, 7035628.849264306016266 ], [ 259877.97964720701566, 7035633.852454896084964 ], [ 259872.976456617092481, 7035633.852454896084964 ], [ 259872.976456617092481, 7035638.855645486153662 ], [ 259867.973266027140198, 7035638.855645486153662 ], [ 259867.973266027140198, 7035643.85883607622236 ], [ 259862.970075437187916, 7035643.85883607622236 ], [ 259862.970075437187916, 7035648.862026666291058 ], [ 259857.966884847235633, 7035648.862026666291058 ], [ 259857.966884847235633, 7035653.865217256359756 ], [ 259852.96369425728335, 7035653.865217256359756 ], [ 259852.96369425728335, 7035658.868407846428454 ], [ 259847.960503667331068, 7035658.868407846428454 ], [ 259847.960503667331068, 7035663.871598435565829 ], [ 259842.957313077407889, 7035663.871598435565829 ], [ 259842.957313077407889, 7035668.874789025634527 ], [ 259837.954122487455606, 7035668.874789025634527 ], [ 259837.954122487455606, 7035673.877979615703225 ], [ 259832.950931897503324, 7035673.877979615703225 ], [ 259832.950931897503324, 7035678.881170205771923 ], [ 259827.947741307551041, 7035678.881170205771923 ], [ 259827.947741307551041, 7035683.884360795840621 ], [ 259822.944550717598759, 7035683.884360795840621 ], [ 259822.944550717598759, 7035688.887551385909319 ], [ 259817.94136012767558, 7035688.887551385909319 ], [ 259817.94136012767558, 7035693.890741975978017 ], [ 259812.938169537723297, 7035693.890741975978017 ], [ 259812.938169537723297, 7035698.893932566046715 ], [ 259807.934978947771015, 7035698.893932566046715 ], [ 259807.934978947771015, 7035703.89712315518409 ], [ 259802.931788357818732, 7035703.89712315518409 ], [ 259802.931788357818732, 7035708.900313745252788 ], [ 259797.928597767866449, 7035708.900313745252788 ], [ 259797.928597767866449, 7035713.903504335321486 ], [ 259792.925407177914167, 7035713.903504335321486 ], [ 259792.925407177914167, 7035718.906694925390184 ], [ 259787.922216587990988, 7035718.906694925390184 ], [ 259787.922216587990988, 7035723.909885515458882 ], [ 259782.919025998038705, 7035723.909885515458882 ], [ 259782.919025998038705, 7035728.91307610552758 ], [ 259777.915835408086423, 7035728.91307610552758 ], [ 259777.915835408086423, 7035733.916266695596278 ], [ 259772.91264481813414, 7035733.916266695596278 ], [ 259772.91264481813414, 7035738.919457285664976 ], [ 259767.909454228181858, 7035738.919457285664976 ], [ 259767.909454228181858, 7035743.922647874802351 ], [ 259762.906263638258679, 7035743.922647874802351 ], [ 259762.906263638258679, 7035748.925838464871049 ], [ 259757.903073048306396, 7035748.925838464871049 ], [ 259757.903073048306396, 7035753.929029054939747 ], [ 259752.899882458354114, 7035753.929029054939747 ], [ 259752.899882458354114, 7035758.932219645008445 ], [ 259747.896691868401831, 7035758.932219645008445 ], [ 259747.896691868401831, 7035763.935410235077143 ], [ 259742.893501278449548, 7035763.935410235077143 ], [ 259742.893501278449548, 7035768.938600825145841 ], [ 259737.890310688497266, 7035768.938600825145841 ], [ 259737.890310688497266, 7035773.941791415214539 ], [ 259732.887120098574087, 7035773.941791415214539 ], [ 259732.887120098574087, 7035778.944982004351914 ], [ 259727.883929508621804, 7035778.944982004351914 ], [ 259727.883929508621804, 7035783.948172594420612 ], [ 259722.880738918669522, 7035783.948172594420612 ], [ 259722.880738918669522, 7035788.95136318448931 ], [ 259717.877548328717239, 7035788.95136318448931 ], [ 259717.877548328717239, 7035793.954553774558008 ], [ 259712.874357738764957, 7035793.954553774558008 ], [ 259712.874357738764957, 7035798.957744364626706 ], [ 259707.871167148841778, 7035798.957744364626706 ], [ 259707.871167148841778, 7035803.960934954695404 ], [ 259702.867976558889495, 7035803.960934954695404 ], [ 259702.867976558889495, 7035808.964125544764102 ], [ 259697.864785968937213, 7035808.964125544764102 ], [ 259697.864785968937213, 7035813.967316134832799 ], [ 259692.86159537898493, 7035813.967316134832799 ], [ 259692.86159537898493, 7035818.970506723970175 ], [ 259687.858404789032647, 7035818.970506723970175 ], [ 259687.858404789032647, 7035823.973697314038873 ], [ 259682.855214199080365, 7035823.973697314038873 ], [ 259682.855214199080365, 7035828.976887904107571 ], [ 259677.852023609157186, 7035828.976887904107571 ], [ 259677.852023609157186, 7035833.980078494176269 ], [ 259672.848833019204903, 7035833.980078494176269 ], [ 259672.848833019204903, 7035838.983269084244967 ], [ 259667.845642429252621, 7035838.983269084244967 ], [ 259667.845642429252621, 7035843.986459674313664 ], [ 259662.842451839300338, 7035843.986459674313664 ], [ 259662.842451839300338, 7035848.989650264382362 ], [ 259657.839261249348056, 7035848.989650264382362 ], [ 259657.839261249348056, 7035853.99284085445106 ], [ 259652.836070659424877, 7035853.99284085445106 ], [ 259652.836070659424877, 7035858.996031443588436 ], [ 259647.832880069472594, 7035858.996031443588436 ], [ 259647.832880069472594, 7035863.999222033657134 ], [ 259642.829689479520312, 7035863.999222033657134 ], [ 259642.829689479520312, 7035869.002412623725832 ], [ 259637.826498889568029, 7035869.002412623725832 ], [ 259637.826498889568029, 7035874.005603213794529 ], [ 259632.823308299615746, 7035874.005603213794529 ], [ 259632.823308299615746, 7035879.008793803863227 ], [ 259627.820117709663464, 7035879.008793803863227 ], [ 259627.820117709663464, 7035884.011984393931925 ], [ 259622.816927119740285, 7035884.011984393931925 ], [ 259622.816927119740285, 7035889.015174984000623 ], [ 259617.813736529788002, 7035889.015174984000623 ], [ 259617.813736529788002, 7035894.018365573137999 ], [ 259612.81054593983572, 7035894.018365573137999 ], [ 259612.81054593983572, 7035899.021556163206697 ], [ 259607.807355349883437, 7035899.021556163206697 ], [ 259607.807355349883437, 7035904.024746753275394 ], [ 259602.804164759931155, 7035904.024746753275394 ], [ 259602.804164759931155, 7035909.027937343344092 ], [ 259597.800974170007976, 7035909.027937343344092 ], [ 259597.800974170007976, 7035914.03112793341279 ], [ 259592.797783580055693, 7035914.03112793341279 ], [ 259592.797783580055693, 7035919.034318523481488 ], [ 259587.794592990103411, 7035919.034318523481488 ], [ 259587.794592990103411, 7035924.037509113550186 ], [ 259582.791402400151128, 7035924.037509113550186 ], [ 259582.791402400151128, 7035929.040699703618884 ], [ 259577.788211810198845, 7035929.040699703618884 ], [ 259577.788211810198845, 7035934.043890292756259 ], [ 259572.785021220246563, 7035934.043890292756259 ], [ 259572.785021220246563, 7035939.047080882824957 ], [ 259567.781830630323384, 7035939.047080882824957 ], [ 259567.781830630323384, 7035944.050271472893655 ], [ 259562.778640040371101, 7035944.050271472893655 ], [ 259562.778640040371101, 7035949.053462062962353 ], [ 259557.775449450418819, 7035949.053462062962353 ], [ 259557.775449450418819, 7035954.056652653031051 ], [ 259552.772258860466536, 7035954.056652653031051 ], [ 259552.772258860466536, 7035959.059843243099749 ], [ 259547.769068270514254, 7035959.059843243099749 ], [ 259547.769068270514254, 7035964.063033833168447 ], [ 259542.765877680591075, 7035964.063033833168447 ], [ 259542.765877680591075, 7035969.066224423237145 ], [ 259537.762687090638792, 7035969.066224423237145 ], [ 259537.762687090638792, 7035974.06941501237452 ], [ 259532.75949650068651, 7035974.06941501237452 ] ], [ [ 259442.702065881632734, 7035013.456821742467582 ], [ 259447.705256471585017, 7035013.456821742467582 ], [ 259447.705256471585017, 7035008.453631153330207 ], [ 259442.702065881632734, 7035008.453631153330207 ], [ 259442.702065881632734, 7035013.456821742467582 ] ], [ [ 259437.698875291680451, 7035003.450440563261509 ], [ 259442.702065881632734, 7035003.450440563261509 ], [ 259442.702065881632734, 7034998.447249973192811 ], [ 259437.698875291680451, 7034998.447249973192811 ], [ 259437.698875291680451, 7035003.450440563261509 ] ], [ [ 259382.66377880226355, 7034978.434487612918019 ], [ 259427.69249411180499, 7034978.434487612918019 ], [ 259427.69249411180499, 7034963.424915843643248 ], [ 259422.689303521852707, 7034963.424915843643248 ], [ 259422.689303521852707, 7034958.42172525357455 ], [ 259412.682922341948142, 7034958.42172525357455 ], [ 259412.682922341948142, 7034953.418534663505852 ], [ 259402.676541162072681, 7034953.418534663505852 ], [ 259402.676541162072681, 7034948.415344073437154 ], [ 259397.673350572120398, 7034948.415344073437154 ], [ 259397.673350572120398, 7034943.412153483368456 ], [ 259387.666969392215833, 7034943.412153483368456 ], [ 259387.666969392215833, 7034938.408962893299758 ], [ 259382.66377880226355, 7034938.408962893299758 ], [ 259382.66377880226355, 7034933.405772304162383 ], [ 259377.660588212340372, 7034933.405772304162383 ], [ 259377.660588212340372, 7034928.402581714093685 ], [ 259372.657397622388089, 7034928.402581714093685 ], [ 259372.657397622388089, 7034923.399391124024987 ], [ 259357.647825852531241, 7034923.399391124024987 ], [ 259357.647825852531241, 7034928.402581714093685 ], [ 259352.644635262578959, 7034928.402581714093685 ], [ 259352.644635262578959, 7034938.408962893299758 ], [ 259357.647825852531241, 7034938.408962893299758 ], [ 259357.647825852531241, 7034948.415344073437154 ], [ 259362.651016442483524, 7034948.415344073437154 ], [ 259362.651016442483524, 7034958.42172525357455 ], [ 259367.654207032435806, 7034958.42172525357455 ], [ 259367.654207032435806, 7034963.424915843643248 ], [ 259372.657397622388089, 7034963.424915843643248 ], [ 259372.657397622388089, 7034968.428106433711946 ], [ 259377.660588212340372, 7034968.428106433711946 ], [ 259377.660588212340372, 7034973.431297023780644 ], [ 259382.66377880226355, 7034973.431297023780644 ], [ 259382.66377880226355, 7034978.434487612918019 ] ], [ [ 258572.146903230866883, 7034252.971852070651948 ], [ 258577.150093820819166, 7034252.971852070651948 ], [ 258577.150093820819166, 7034247.968661480583251 ], [ 258572.146903230866883, 7034247.968661480583251 ], [ 258572.146903230866883, 7034252.971852070651948 ] ], [ [ 258577.150093820819166, 7034247.968661480583251 ], [ 258587.156475000694627, 7034247.968661480583251 ], [ 258587.156475000694627, 7034242.965470891445875 ], [ 258592.15966559064691, 7034242.965470891445875 ], [ 258592.15966559064691, 7034237.962280301377177 ], [ 258582.153284410771448, 7034237.962280301377177 ], [ 258582.153284410771448, 7034242.965470891445875 ], [ 258577.150093820819166, 7034242.965470891445875 ], [ 258577.150093820819166, 7034247.968661480583251 ] ], [ [ 258592.15966559064691, 7034237.962280301377177 ], [ 258597.162856180599192, 7034237.962280301377177 ], [ 258597.162856180599192, 7034232.959089711308479 ], [ 258592.15966559064691, 7034232.959089711308479 ], [ 258592.15966559064691, 7034237.962280301377177 ] ] ] } }
]
}
