{
"type": "FeatureCollection",
"name": "streams_subset_5",
"crs": { "type": "name", "properties": { "name": "urn:ogc:def:crs:EPSG::25833" } },
"features": [
{ "type": "Feature", "properties": { "fid": 990, "objtype": "ElvBekk", "lokalid": "c78f30c3-16ee-44f7-953a-8aca4461062e", "medium": "T", "vannbredde": 1.0, "vannsperretype": null, "arealRegineEnhet_km2": null, "elveordenStrahler": null, "catch_area": 2.249160575912954, "water_depth": 0.81387875803095833, "gradient": 0.0, "aggressive": 0.0, "aggressiveness": 0.0, "id": 990 }, "geometry": { "type": "MultiLineString", "coordinates": [ [ [ 258956.583491459634388, 7034537.224670800380409 ], [ 258956.066800000146031, 7034535.136399999260902 ], [ 258955.255499999970198, 7034533.132100000977516 ], [ 258950.737900000065565, 7034523.877500001341105 ], [ 258950.5921, 7034521.147399999201298 ], [ 258954.162299999967217, 7034517.425000000745058 ], [ 258965.376500000245869, 7034507.125199999660254 ], [ 258967.361999999731779, 7034505.792899999767542 ], [ 258968.825000000186265, 7034505.424400001764297 ] ] ] } },
{ "type": "Feature", "properties": { "fid": 1638, "objtype": "ElvBekk", "lokalid": "7af7490e-3f2e-470d-a1ba-f53d1e94446c", "medium": "T", "vannbredde": 1.0, "vannsperretype": null, "arealRegineEnhet_km2": null, "elveordenStrahler": null, "catch_area": 0.096904475844741794, "water_depth": 0.38264612841897805, "gradient": 0.0, "aggressive": 0.0, "aggressiveness": 0.0, "id": 1638 }, "geometry": { "type": "MultiLineString", "coordinates": [ [ [ 255541.184399999678135, 7041211.318799998611212 ], [ 255542.251000000163913, 7041212.615699999034405 ], [ 255548.293999999761581, 7041223.978500001132488 ], [ 255551.635599999688566, 7041236.650400001555681 ], [ 255555.095700000412762, 7041260.960400000214577 ], [ 255557.5773, 7041300.207600001245737 ], [ 255558.232719771534903, 7041308.647580461576581 ] ] ] } },
{ "type": "Feature", "properties": { "fid": 1218, "objtype": "Elvekant", "lokalid": "3d3917a3-20a5-4971-af1e-58531bdc6bd8", "medium": "T", "vannbredde": null, "vannsperretype": null, "arealRegineEnhet_km2": null, "elveordenStrahler": null, "catch_area": 1.8940754991615116, "water_depth": 1.5, "gradient": 0.0, "aggressive": 0.0, "aggressiveness": 0.0, "id": 1218 }, "geometry": { "type": "MultiLineString", "coordinates": [ [ [ 258096.896099999547005, 7039064.510499998927116 ], [ 258097.224299999885261, 7039061.906700000166893 ], [ 258093.976300000213087, 7039055.2566 ], [ 258092.664099999703467, 7039052.7364999987185 ], [ 258089.794499999843538, 7039049.57880000025034 ], [ 258086.139499999582767, 7039045.8717 ], [ 258083.130300000309944, 7039042.4054000005126 ], [ 258081.768099999986589, 7039040.744300000369549 ], [ 258076.98369999974966, 7039037.746399998664856 ], [ 258069.614599999971688, 7039035.373199999332428 ], [ 258066.25040000025183, 7039032.834800001233816 ], [ 258063.447800000198185, 7039025.469500001519918 ], [ 258060.997000000439584, 7039019.709499999880791 ], [ 258057.300499999895692, 7039015.775100000202656 ], [ 258054.106399999931455, 7039012.265900000929832 ], [ 258052.830400000326335, 7039008.847899999469519 ], [ 258053.222000000067055, 7039004.991799999028444 ], [ 258055.810899999924004, 7039002.165500000119209 ], [ 258057.924999999813735, 7038999.313499998301268 ], [ 258059.71030000038445, 7038997.989900000393391 ], [ 258062.311900000087917, 7038996.046900000423193 ], [ 258065.666699999943376, 7038993.349700000137091 ], [ 258067.426799999549985, 7038991.757100000977516 ], [ 258068.812749985227128, 7038990.341640788130462 ] ] ] } },
{ "type": "Feature", "properties": { "fid": 1176, "objtype": "Elvekant", "lokalid": "c3c62389-1f45-4c55-b4d2-71c61d656a71", "medium": "T", "vannbredde": null, "vannsperretype": null, "arealRegineEnhet_km2": null, "elveordenStrahler": null, "catch_area": 2.2927964705236539, "water_depth": 1.5, "gradient": 0.0, "aggressive": 0.0, "aggressiveness": 0.0, "id": 1176 }, "geometry": { "type": "MultiLineString", "coordinates": [ [ [ 258621.053000000305474, 7038489.5320999994874 ], [ 258616.257000000216067, 7038494.435100000351667 ], [ 258613.198599999770522, 7038499.004099998623133 ], [ 258611.005300000309944, 7038502.938900001347065 ], [ 258609.974399999715388, 7038504.161499999463558 ], [ 258608.142099999822676, 7038505.519600000232458 ], [ 258603.939399999566376, 7038508.286400001496077 ], [ 258600.940899999812245, 7038509.854600001126528 ], [ 258598.18030000012368, 7038510.425500001758337 ], [ 258593.482699999585748, 7038510.384300000965595 ], [ 258590.583899999968708, 7038509.591299999505281 ], [ 258585.771499999798834, 7038506.61600000038743 ], [ 258577.750199999660254, 7038500.937100000679493 ], [ 258572.705199999734759, 7038495.913199998438358 ], [ 258568.326200000010431, 7038489.741300001740456 ], [ 258566.785500000230968, 7038485.966299999505281 ], [ 258566.104199999943376, 7038482.030099999159575 ], [ 258565.646300000138581, 7038475.8717 ], [ 258564.362599999643862, 7038467.770799998193979 ], [ 258563.233631939190673, 7038460.155924146994948 ] ] ] } },
{ "type": "Feature", "properties": { "fid": 1374, "objtype": "ElvBekk", "lokalid": "5936e55d-1de3-44de-851e-daa177932a0a", "medium": "T", "vannbredde": 1.0, "vannsperretype": null, "arealRegineEnhet_km2": null, "elveordenStrahler": null, "catch_area": 1.8825103921458104, "water_depth": 0.77985125333277217, "gradient": 0.0, "aggressive": 0.0, "aggressiveness": 0.0, "id": 1374 }, "geometry": { "type": "MultiLineString", "coordinates": [ [ [ 257920.936099999584258, 7041553.187600001692772 ], [ 257920.451700000092387, 7041554.770899999886751 ], [ 257920.139200000092387, 7041556.579300001263618 ], [ 257920.404199999757111, 7041558.222800001502037 ], [ 257921.718700000084937, 7041559.6974 ], [ 257923.449500000104308, 7041561.323800001293421 ], [ 257926.962000000290573, 7041565.22520000115037 ], [ 257928.659900000318885, 7041567.357200000435114 ], [ 257929.659500000067055, 7041569.5449 ], [ 257929.842799999751151, 7041570.854299999773502 ], [ 257929.342199999839067, 7041572.479400001466274 ], [ 257928.735299999825656, 7041573.400800000876188 ], [ 257927.892699999734759, 7041574.274000000208616 ] ] ] } }
]
}
