{
"type": "FeatureCollection",
"name": "streams_subset_50",
"crs": { "type": "name", "properties": { "name": "urn:ogc:def:crs:EPSG::25833" } },
"features": [
{ "type": "Feature", "properties": { "fid": 990, "objtype": "ElvBekk", "lokalid": "c78f30c3-16ee-44f7-953a-8aca4461062e", "medium": "T", "vannbredde": 1.0, "vannsperretype": null, "arealRegineEnhet_km2": null, "elveordenStrahler": null, "catch_area": 2.249160575912954, "water_depth": 0.81387875803095833, "gradient": 0.0, "aggressive": 0.0, "aggressiveness": 0.0, "id": 990 }, "geometry": { "type": "MultiLineString", "coordinates": [ [ [ 258956.583491459634388, 7034537.224670800380409 ], [ 258956.066800000146031, 7034535.136399999260902 ], [ 258955.255499999970198, 7034533.132100000977516 ], [ 258950.737900000065565, 7034523.877500001341105 ], [ 258950.5921, 7034521.147399999201298 ], [ 258954.162299999967217, 7034517.425000000745058 ], [ 258965.376500000245869, 7034507.125199999660254 ], [ 258967.361999999731779, 7034505.792899999767542 ], [ 258968.825000000186265, 7034505.424400001764297 ] ] ] } },
{ "type": "Feature", "properties": { "fid": 1638, "objtype": "ElvBekk", "lokalid": "7af7490e-3f2e-470d-a1ba-f53d1e94446c", "medium": "T", "vannbredde": 1.0, "vannsperretype": null, "arealRegineEnhet_km2": null, "elveordenStrahler": null, "catch_area": 0.096904475844741794, "water_depth": 0.38264612841897805, "gradient": 0.0, "aggressive": 0.0, "aggressiveness": 0.0, "id": 1638 }, "geometry": { "type": "MultiLineString", "coordinates": [ [ [ 255541.184399999678135, 7041211.318799998611212 ], [ 255542.251000000163913, 7041212.615699999034405 ], [ 255548.293999999761581, 7041223.978500001132488 ], [ 255551.635599999688566, 7041236.650400001555681 ], [ 255555.095700000412762, 7041260.960400000214577 ], [ 255557.5773, 7041300.207600001245737 ], [ 255558.232719771534903, 7041308.647580461576581 ] ] ] } },
{ "type": "Feature", "properties": { "fid": 1218, "objtype": "Elvekant", "lokalid": "3d3917a3-20a5-4971-af1e-58531bdc6bd8", "medium": "T", "vannbredde": null, "vannsperretype": null, "arealRegineEnhet_km2": null, "elveordenStrahler": null, "catch_area": 1.8940754991615116, "water_depth": 1.5, "gradient": 0.0, "aggressive": 0.0, "aggressiveness": 0.0, "id": 1218 }, "geometry": { "type": "MultiLineString", "coordinates": [ [ [ 258096.896099999547005, 7039064.510499998927116 ], [ 258097.224299999885261, 7039061.906700000166893 ], [ 258093.976300000213087, 7039055.2566 ], [ 258092.664099999703467, 7039052.7364999987185 ], [ 258089.794499999843538, 7039049.57880000025034 ], [ 258086.139499999582767, 7039045.8717 ], [ 258083.130300000309944, 7039042.4054000005126 ], [ 258081.768099999986589, 7039040.744300000369549 ], [ 258076.98369999974966, 7039037.746399998664856 ], [ 258069.614599999971688, 7039035.373199999332428 ], [ 258066.25040000025183, 7039032.834800001233816 ], [ 258063.447800000198185, 7039025.469500001519918 ], [ 258060.997000000439584, 7039019.709499999880791 ], [ 258057.300499999895692, 7039015.775100000202656 ], [ 258054.106399999931455, 7039012.265900000929832 ], [ 258052.830400000326335, 7039008.847899999469519 ], [ 258053.222000000067055, 7039004.991799999028444 ], [ 258055.810899999924004, 7039002.165500000119209 ], [ 258057.924999999813735, 7038999.313499998301268 ], [ 258059.71030000038445, 7038997.989900000393391 ], [ 258062.311900000087917, 7038996.046900000423193 ], [ 258065.666699999943376, 7038993.349700000137091 ], [ 258067.426799999549985, 7038991.757100000977516 ], [ 258068.812749985227128, 7038990.341640788130462 ] ] ] } },
{ "type": "Feature", "properties": { "fid": 1176, "objtype": "Elvekant", "lokalid": "c3c62389-1f45-4c55-b4d2-71c61d656a71", "medium": "T", "vannbredde": null, "vannsperretype": null, "arealRegineEnhet_km2": null, "elveordenStrahler": null, "catch_area": 2.2927964705236539, "water_depth": 1.5, "gradient": 0.0, "aggressive": 0.0, "aggressiveness": 0.0, "id": 1176 }, "geometry": { "type": "MultiLineString", "coordinates": [ [ [ 258621.053000000305474, 7038489.5320999994874 ], [ 258616.257000000216067, 7038494.435100000351667 ], [ 258613.198599999770522, 7038499.004099998623133 ], [ 258611.005300000309944, 7038502.938900001347065 ], [ 258609.974399999715388, 7038504.161499999463558 ], [ 258608.142099999822676, 7038505.519600000232458 ], [ 258603.939399999566376, 7038508.286400001496077 ], [ 258600.940899999812245, 7038509.854600001126528 ], [ 258598.18030000012368, 7038510.425500001758337 ], [ 258593.482699999585748, 7038510.384300000965595 ], [ 258590.583899999968708, 7038509.591299999505281 ], [ 258585.771499999798834, 7038506.61600000038743 ], [ 258577.750199999660254, 7038500.937100000679493 ], [ 258572.705199999734759, 7038495.913199998438358 ], [ 258568.326200000010431, 7038489.741300001740456 ], [ 258566.785500000230968, 7038485.966299999505281 ], [ 258566.104199999943376, 7038482.030099999159575 ], [ 258565.646300000138581, 7038475.8717 ], [ 258564.362599999643862, 7038467.770799998193979 ], [ 258563.233631939190673, 7038460.155924146994948 ] ] ] } },
{ "type": "Feature", "properties": { "fid": 1374, "objtype": "ElvBekk", "lokalid": "5936e55d-1de3-44de-851e-daa177932a0a", "medium": "T", "vannbredde": 1.0, "vannsperretype": null, "arealRegineEnhet_km2": null, "elveordenStrahler": null, "catch_area": 1.8825103921458104, "water_depth": 0.77985125333277217, "gradient": 0.0, "aggressive": 0.0, "aggressiveness": 0.0, "id": 1374 }, "geometry": { "type": "MultiLineString", "coordinates": [ [ [ 257920.936099999584258, 7041553.187600001692772 ], [ 257920.451700000092387, 7041554.770899999886751 ], [ 257920.139200000092387, 7041556.579300001263618 ], [ 257920.404199999757111, 7041558.222800001502037 ], [ 257921.718700000084937, 7041559.6974 ], [ 257923.449500000104308, 7041561.323800001293421 ], [ 257926.962000000290573, 7041565.22520000115037 ], [ 257928.659900000318885, 7041567.357200000435114 ], [ 257929.659500000067055, 7041569.5449 ], [ 257929.842799999751151, 7041570.854299999773502 ], [ 257929.342199999839067, 7041572.479400001466274 ], [ 257928.735299999825656, 7041573.400800000876188 ], [ 257927.892699999734759, 7041574.274000000208616 ] ] ] } },
{ "type": "Feature", "properties": { "fid": 79, "objtype": "Elvekant", "lokalid": "b38e22c9-375f-419f-93be-658db81707c6", "medium": "T", "vannbredde": null, "vannsperretype": null, "arealRegineEnhet_km2": null, "elveordenStrahler": null, "catch_area": 23.466571916765865, "water_depth": 1.5, "gradient": 0.0, "aggressive": 0.0, "aggressiveness": 0.0, "id": 79 }, "geometry": { "type": "MultiLineString", "coordinates": [ [ [ 256945.692699999548495, 7035241.867600001394749 ], [ 256943.321800000034273, 7035245.5176 ], [ 256941.825199999846518, 7035247.668400000780821 ] ] ] } },
{ "type": "Feature", "properties": { "fid": 1189, "objtype": "Elvekant", "lokalid": "a8f909a8-81ae-4eec-8476-c7275ea13d91", "medium": "T", "vannbredde": null, "vannsperretype": null, "arealRegineEnhet_km2": null, "elveordenStrahler": null, "catch_area": 2.5128661692778613, "water_depth": 1.5, "gradient": 0.0, "aggressive": 0.0, "aggressiveness": 0.0, "id": 1189 }, "geometry": { "type": "MultiLineString", "coordinates": [ [ [ 258428.68790000025183, 7038407.758499998599291 ], [ 258422.766099999658763, 7038409.450599998235703 ], [ 258418.280199999921024, 7038410.485100001096725 ], [ 258412.52240000013262, 7038410.392799999564886 ], [ 258405.385599999688566, 7038409.314399998635054 ], [ 258398.756400000303984, 7038407.756099998950958 ], [ 258392.565100000239909, 7038405.081300001591444 ], [ 258389.650999999605119, 7038403.696600001305342 ], [ 258387.041299999691546, 7038402.343699999153614 ], [ 258380.786500000394881, 7038402.629799999296665 ], [ 258375.218799999915063, 7038403.062300000339746 ], [ 258370.129300000146031, 7038403.449999999254942 ] ] ] } },
{ "type": "Feature", "properties": { "fid": 1619, "objtype": "Kystkontur", "lokalid": "87742828-440b-4f96-a3b9-b133239daf84", "medium": "T", "vannbredde": null, "vannsperretype": null, "arealRegineEnhet_km2": null, "elveordenStrahler": null, "catch_area": 0.20648441292128561, "water_depth": 7.5, "gradient": 0.0, "aggressive": 0.0, "aggressiveness": 0.0, "id": 1619 }, "geometry": { "type": "MultiLineString", "coordinates": [ [ [ 254484.674030575755751, 7040628.637661403045058 ], [ 254484.368300000205636, 7040628.349700000137091 ], [ 254483.891499999910593, 7040627.660799998790026 ], [ 254483.233799999579787, 7040627.079300001263618 ], [ 254482.664599999785423, 7040626.690499998629093 ], [ 254482.027700000442564, 7040626.11710000038147 ], [ 254481.118400000035763, 7040625.31810000166297 ], [ 254480.333999999798834, 7040624.7787000015378 ], [ 254479.666899999603629, 7040624.097500000149012 ], [ 254478.819299999624491, 7040623.312800001353025 ], [ 254478.424999999813735, 7040622.9679000005126 ], [ 254474.998599999584258, 7040619.982999999076128 ], [ 254472.157999999821186, 7040618.098999999463558 ], [ 254470.216400000266731, 7040616.261100001633167 ], [ 254467.686200000345707, 7040614.257500000298023 ], [ 254465.730100000277162, 7040612.159600000828505 ], [ 254462.892099999822676, 7040609.019000001251698 ], [ 254460.711199999786913, 7040606.5603 ], [ 254456.746100000105798, 7040603.405000001192093 ], [ 254455.130800000391901, 7040601.938499998301268 ], [ 254452.323699999600649, 7040599.44819999858737 ], [ 254449.627899999730289, 7040597.1787 ], [ 254446.91469999961555, 7040593.975999999791384 ], [ 254441.624200000427663, 7040587.839400000870228 ], [ 254439.552099999971688, 7040584.827799998223782 ], [ 254436.551699999719858, 7040580.707299999892712 ], [ 254434.005699999630451, 7040577.358300000429153 ], [ 254431.835799999535084, 7040574.054299999028444 ], [ 254429.159599999897182, 7040570.818 ], [ 254427.037999999709427, 7040567.600000001490116 ], [ 254424.108799999579787, 7040564.558299999684095 ], [ 254421.315100000239909, 7040561.996399998664856 ], [ 254418.41579999960959, 7040558.951999999582767 ], [ 254416.125179993774509, 7040556.614772296510637 ] ] ] } },
{ "type": "Feature", "properties": { "fid": 1088, "objtype": "ElvBekk", "lokalid": "9613bf9d-d7df-4c85-9947-3422b723864b", "medium": "U", "vannbredde": 1.0, "vannsperretype": null, "arealRegineEnhet_km2": null, "elveordenStrahler": null, "catch_area": 1.1712627756049518, "water_depth": 0.69590802478714242, "gradient": 0.0, "aggressive": 0.0, "aggressiveness": 0.0, "id": 1088 }, "geometry": { "type": "MultiLineString", "coordinates": [ [ [ 258713.707700000144541, 7036815.315499998629093 ], [ 258677.246500000357628, 7036822.4087999984622 ] ] ] } },
{ "type": "Feature", "properties": { "fid": 70, "objtype": "Elvekant", "lokalid": "363d92d8-54ff-4b7a-b9a4-e716d1a8eb0e", "medium": "T", "vannbredde": null, "vannsperretype": null, "arealRegineEnhet_km2": null, "elveordenStrahler": null, "catch_area": 19.874776354825173, "water_depth": 1.5, "gradient": 0.0, "aggressive": 0.0, "aggressiveness": 0.0, "id": 70 }, "geometry": { "type": "MultiLineString", "coordinates": [ [ [ 256380.987099999561906, 7034631.67339999973774 ], [ 256382.280799999833107, 7034627.682300001382828 ], [ 256383.213499999605119, 7034625.092000000178814 ], [ 256384.36600000038743, 7034622.38060000166297 ], [ 256385.680499999783933, 7034620.538499999791384 ], [ 256386.861600000411272, 7034619.8445999994874 ], [ 256388.400700000114739, 7034618.574299998581409 ], [ 256389.604299999773502, 7034617.797899998724461 ], [ 256391.240899999625981, 7034617.031100001186132 ], [ 256392.702899999916553, 7034616.331000000238419 ], [ 256395.629800000227988, 7034613.462999999523163 ], [ 256396.53139999974519, 7034613.217500001192093 ], [ 256397.329300000332296, 7034612.509399998933077 ], [ 256398.10149999987334, 7034610.778400000184774 ], [ 256398.287200000137091, 7034609.866500001400709 ], [ 256398.832700000144541, 7034608.076400000602007 ], [ 256399.952899999916553, 7034606.091699998825788 ], [ 256401.017799999564886, 7034604.695099998265505 ] ] ] } },
{ "type": "Feature", "properties": { "fid": 427, "objtype": "ElvBekk", "lokalid": "1eb5a8d5-e4ad-4372-b663-5ed66bdc28d1", "medium": "T", "vannbredde": 1.0, "vannsperretype": null, "arealRegineEnhet_km2": null, "elveordenStrahler": null, "catch_area": 1.5675743468062153, "water_depth": 0.746327695458189, "gradient": 0.0, "aggressive": 0.0, "aggressiveness": 0.0, "id": 427 }, "geometry": { "type": "MultiLineString", "coordinates": [ [ [ 257621.747222760197474, 7037107.014576492831111 ], [ 257621.350899999961257, 7037106.945900000631809 ], [ 257591.969200000166893, 7037102.740499999374151 ], [ 257589.785299999639392, 7037101.960700001567602 ], [ 257585.838499999605119, 7037100.9243 ], [ 257584.019799999892712, 7037100.180500000715256 ], [ 257582.110399999655783, 7037099.435199998319149 ], [ 257579.779299999587238, 7037099.121399998664856 ], [ 257578.230399999767542, 7037099.216699998825788 ], [ 257576.078200000338256, 7037100.27309999987483 ], [ 257575.45380000025034, 7037101.115800000727177 ], [ 257574.881299999542534, 7037103.260099999606609 ], [ 257573.757299999706447, 7037104.883400000631809 ], [ 257572.59360000025481, 7037105.334399998188019 ], [ 257572.17949999962002, 7037104.991399999707937 ], [ 257572.491100000217557, 7037101.353900000452995 ], [ 257572.771099999547005, 7037100.161699999123812 ], [ 257572.705599999986589, 7037099.464200001209974 ], [ 257571.483599999919534, 7037098.332699999213219 ], [ 257570.409500000067055, 7037098.132100000977516 ], [ 257568.064799999818206, 7037098.422699999064207 ], [ 257566.009700000286102, 7037099.228799998760223 ], [ 257564.626899999566376, 7037100.343699999153614 ], [ 257556.540199999697506, 7037105.204 ], [ 257554.738599999807775, 7037105.926100000739098 ], [ 257552.889600000344217, 7037106.57209999859333 ], [ 257551.850399999879301, 7037107.1722999997437 ], [ 257549.982599999755621, 7037108.473400000482798 ], [ 257548.751500000245869, 7037110.348000001162291 ], [ 257545.826799999922514, 7037113.879200000315905 ], [ 257544.623200000263751, 7037114.33390000090003 ], [ 257542.932300000451505, 7037114.844500001519918 ], [ 257541.284799999557436, 7037115.602299999445677 ], [ 257539.066204822127474, 7037117.602391680702567 ] ] ] } },
{ "type": "Feature", "properties": { "fid": 507, "objtype": "Innsjøkant", "lokalid": "f5bdb1b0-f4df-4283-a79f-171bde01ad5f", "medium": "T", "vannbredde": null, "vannsperretype": null, "arealRegineEnhet_km2": null, "elveordenStrahler": null, "catch_area": 0.13556608714839657, "water_depth": 0.25, "gradient": 0.0, "aggressive": 0.0, "aggressiveness": 0.0, "id": 507 }, "geometry": { "type": "MultiLineString", "coordinates": [ [ [ 254888.552199999801815, 7037980.103300001472235 ], [ 254888.549899999983609, 7037984.144099999219179 ], [ 254885.675699999555945, 7037985.539799999445677 ] ] ] } },
{ "type": "Feature", "properties": { "fid": 24, "objtype": "Elvekant", "lokalid": "397adbcf-845d-40c3-91b0-4785e3b84a9e", "medium": "T", "vannbredde": null, "vannsperretype": null, "arealRegineEnhet_km2": null, "elveordenStrahler": null, "catch_area": 23.078807169020557, "water_depth": 1.5, "gradient": 0.0, "aggressive": 0.0, "aggressiveness": 0.0, "id": 24 }, "geometry": { "type": "MultiLineString", "coordinates": [ [ [ 256878.342595742753474, 7035066.808085628785193 ], [ 256878.070299999788404, 7035066.247299998998642 ], [ 256875.402400000020862, 7035060.849300000816584 ], [ 256873.825899999588728, 7035058.404199998825788 ], [ 256872.446299999952316, 7035056.342700000852346 ], [ 256871.02309999987483, 7035054.245000001043081 ], [ 256868.822300000116229, 7035052.964200001209974 ], [ 256866.979799999855459, 7035051.860800001770258 ], [ 256862.057199999690056, 7035048.996199999004602 ], [ 256855.031000000424683, 7035045.24379999935627 ], [ 256850.164599999785423, 7035042.6554000005126 ], [ 256845.201899999752641, 7035038.186500001698732 ], [ 256842.246799999848008, 7035035.830699998885393 ], [ 256838.076799999922514, 7035033.488499999046326 ], [ 256833.833999999798834, 7035031.333999998867512 ], [ 256830.7171, 7035029.717099998146296 ], [ 256827.767099999822676, 7035029.662399999797344 ], [ 256824.873499999754131, 7035029.9945 ], [ 256823.873100000433624, 7035029.937699999660254 ], [ 256823.097500000149012, 7035029.598400000482798 ], [ 256820.126000000163913, 7035027.817099999636412 ], [ 256818.172899999655783, 7035026.070700000971556 ], [ 256814.58490000013262, 7035025.965500000864267 ], [ 256810.981800000183284, 7035026.876800000667572 ], [ 256806.741399999707937, 7035027.958500001579523 ], [ 256803.542799999937415, 7035028.681000001728535 ], [ 256800.558299999684095, 7035029.544199999421835 ], [ 256797.406999999657273, 7035030.342700000852346 ], [ 256794.482513678289251, 7035030.627101902849972 ] ] ] } },
{ "type": "Feature", "properties": { "fid": 1582, "objtype": "Kanalkant", "lokalid": "7236c27c-157c-4b30-a5e4-b1470991b7b0", "medium": "T", "vannbredde": null, "vannsperretype": null, "arealRegineEnhet_km2": null, "elveordenStrahler": null, "catch_area": 0.091640833195219942, "water_depth": 0.3775514736114024, "gradient": 0.0, "aggressive": 0.0, "aggressiveness": 0.0, "id": 1582 }, "geometry": { "type": "MultiLineString", "coordinates": [ [ [ 255808.000099999830127, 7039920.354800000786781 ], [ 255806.352400000207126, 7039918.650100000202656 ], [ 255797.938699999824166, 7039912.113400001078844 ], [ 255786.309899999760091, 7039902.381000000983477 ], [ 255775.645600000396371, 7039893.392299998551607 ], [ 255767.535000000149012, 7039886.123500000685453 ], [ 255754.879999999888241, 7039876.165899999439716 ], [ 255742.080500000156462, 7039866.061099998652935 ], [ 255731.114199999719858, 7039857.281599998474121 ], [ 255730.717179241939448, 7039856.954976019449532 ] ] ] } },
{ "type": "Feature", "properties": { "fid": 71, "objtype": "Elvekant", "lokalid": "f25f831e-252e-48b6-a954-7e9d3df6242e", "medium": "T", "vannbredde": null, "vannsperretype": null, "arealRegineEnhet_km2": null, "elveordenStrahler": null, "catch_area": 23.775069299282222, "water_depth": 1.5, "gradient": 0.0, "aggressive": 0.0, "aggressiveness": 0.0, "id": 71 }, "geometry": { "type": "MultiLineString", "coordinates": [ [ [ 256424.359120423672721, 7034653.50308152101934 ], [ 256421.599000000394881, 7034653.358600001782179 ], [ 256417.57149999961257, 7034653.817200001329184 ], [ 256410.701100000180304, 7034654.934799998998642 ], [ 256406.338499999605119, 7034654.821899998933077 ], [ 256402.071000000461936, 7034654.11710000038147 ], [ 256397.523900000378489, 7034653.539000000804663 ], [ 256391.684299999848008, 7034651.8260000012815 ], [ 256388.500099999830127, 7034649.491700001060963 ], [ 256385.248399999924004, 7034646.1184 ], [ 256383.793100000359118, 7034643.893100000917912 ], [ 256381.45380000025034, 7034637.499299999326468 ], [ 256380.987099999561906, 7034631.67339999973774 ] ] ] } },
{ "type": "Feature", "properties": { "fid": 651, "objtype": "Elvekant", "lokalid": "dbe04e3f-bec0-42bf-add2-20a2371ea03d", "medium": "T", "vannbredde": null, "vannsperretype": null, "arealRegineEnhet_km2": null, "elveordenStrahler": null, "catch_area": 2.0603827828662209, "water_depth": 1.5, "gradient": 0.0, "aggressive": 0.0, "aggressiveness": 0.0, "id": 651 }, "geometry": { "type": "MultiLineString", "coordinates": [ [ [ 257501.205552244035061, 7037921.831436604261398 ], [ 257501.647300000302494, 7037920.589699998497963 ], [ 257502.214800000190735, 7037917.96339999884367 ], [ 257502.237499999813735, 7037916.49379999935627 ], [ 257502.422199999913573, 7037914.928599998354912 ], [ 257502.967400000430644, 7037913.349700000137091 ], [ 257503.635900000110269, 7037912.120999999344349 ] ] ] } },
{ "type": "Feature", "properties": { "fid": 116, "objtype": "ElvBekk", "lokalid": "d10e5dbe-321e-4fe5-ba6a-a69d52f0186d", "medium": "T", "vannbredde": 1.0, "vannsperretype": null, "arealRegineEnhet_km2": null, "elveordenStrahler": null, "catch_area": 1.0881889939637914, "water_depth": 0.68372874972030329, "gradient": 0.0, "aggressive": 0.0, "aggressiveness": 0.0, "id": 116 }, "geometry": { "type": "MultiLineString", "coordinates": [ [ [ 257555.797899999655783, 7036208.50730000063777 ], [ 257548.485500000417233, 7036205.9879 ], [ 257537.525299999862909, 7036203.368900001049042 ], [ 257524.144999999552965, 7036200.344000000506639 ], [ 257508.279099999926984, 7036197.180599998682737 ], [ 257498.98340000025928, 7036194.626400001347065 ], [ 257497.259600000455976, 7036193.823399998247623 ], [ 257494.082200000062585, 7036193.166999999433756 ] ] ] } },
{ "type": "Feature", "properties": { "fid": 399, "objtype": "Elvekant", "lokalid": "905d55d2-a581-4b02-b1da-d4a953ca9773", "medium": "U", "vannbredde": null, "vannsperretype": null, "arealRegineEnhet_km2": null, "elveordenStrahler": null, "catch_area": 2.7117710756961793, "water_depth": 1.5, "gradient": 0.0, "aggressive": 0.0, "aggressiveness": 0.0, "id": 399 }, "geometry": { "type": "MultiLineString", "coordinates": [ [ [ 257307.190000000409782, 7036619.097199998795986 ], [ 257297.596699999645352, 7036620.329999998211861 ] ] ] } },
{ "type": "Feature", "properties": { "fid": 915, "objtype": "ElvBekk", "lokalid": "d1e9f41a-ea1f-43e4-8f5f-375fdb124f57", "medium": "T", "vannbredde": 1.0, "vannsperretype": null, "arealRegineEnhet_km2": null, "elveordenStrahler": null, "catch_area": 1.6350741621242411, "water_depth": 0.75391744405132877, "gradient": 0.0, "aggressive": 0.0, "aggressiveness": 0.0, "id": 915 }, "geometry": { "type": "MultiLineString", "coordinates": [ [ [ 256848.443799999542534, 7041312.60359999909997 ], [ 256848.02379999961704, 7041314.231100000441074 ], [ 256847.9227, 7041316.150299999862909 ], [ 256848.513000000268221, 7041319.00959999859333 ] ] ] } },
{ "type": "Feature", "properties": { "fid": 1359, "objtype": "ElvBekk", "lokalid": "31fdf7ac-9bd7-4090-a879-c90d65ba905e", "medium": "T", "vannbredde": 1.0, "vannsperretype": null, "arealRegineEnhet_km2": null, "elveordenStrahler": null, "catch_area": 0.44137337911830909, "water_depth": 0.55058994414034357, "gradient": 0.0, "aggressive": 0.0, "aggressiveness": 0.0, "id": 1359 }, "geometry": { "type": "MultiLineString", "coordinates": [ [ [ 257158.045214742043754, 7039389.645922554656863 ], [ 257139.521999999880791, 7039380.013900000602007 ], [ 257104.322599999606609, 7039361.600900001823902 ], [ 257096.331699999980628, 7039355.818500000983477 ], [ 257088.855700000189245, 7039349.847100000828505 ], [ 257082.052099999971688, 7039345.14919999986887 ], [ 257077.573200000450015, 7039341.0168999992311 ], [ 257073.940782381250756, 7039336.749525750055909 ] ] ] } },
{ "type": "Feature", "properties": { "fid": 694, "objtype": "Elvekant", "lokalid": "c3272505-afa4-48d4-a822-78a9806d42ad", "medium": "U", "vannbredde": null, "vannsperretype": null, "arealRegineEnhet_km2": null, "elveordenStrahler": null, "catch_area": 3.0227409230055651, "water_depth": 1.5, "gradient": 0.0, "aggressive": 0.0, "aggressiveness": 0.0, "id": 694 }, "geometry": { "type": "MultiLineString", "coordinates": [ [ [ 257107.265399999916553, 7038285.486699998378754 ], [ 257103.079800000414252, 7038277.949799999594688 ] ] ] } },
{ "type": "Feature", "properties": { "fid": 1448, "objtype": "Elvekant", "lokalid": "0467e639-97b4-4835-a659-bf527f1c600c", "medium": "T", "vannbredde": null, "vannsperretype": null, "arealRegineEnhet_km2": null, "elveordenStrahler": null, "catch_area": 7.0963670479426249, "water_depth": 1.5, "gradient": 0.0, "aggressive": 0.0, "aggressiveness": 0.0, "id": 1448 }, "geometry": { "type": "MultiLineString", "coordinates": [ [ [ 259049.931144044152461, 7042830.196565931662917 ], [ 259045.333399999886751, 7042829.125399999320507 ], [ 259030.911899999715388, 7042826.038199998438358 ], [ 259019.509800000116229, 7042822.888399999588728 ], [ 259006.520600000396371, 7042820.3902000002563 ], [ 258991.082899999804795, 7042818.896099999547005 ], [ 258980.327399999834597, 7042818.670499999076128 ], [ 258974.734600000083447, 7042819.47749999910593 ], [ 258967.684200000017881, 7042820.9239999987185 ], [ 258960.378100000321865, 7042823.178599998354912 ], [ 258953.520600000396371, 7042825.501499999314547 ], [ 258952.118303435243433, 7042825.950679182074964 ] ] ] } },
{ "type": "Feature", "properties": { "fid": 620, "objtype": "ElvBekk", "lokalid": "2e994167-8135-4009-ad73-2856b78557a0", "medium": "T", "vannbredde": 1.0, "vannsperretype": null, "arealRegineEnhet_km2": null, "elveordenStrahler": null, "catch_area": 2.2274274720625025, "water_depth": 0.81198435203810193, "gradient": 0.0, "aggressive": 0.0, "aggressiveness": 0.0, "id": 620 }, "geometry": { "type": "MultiLineString", "coordinates": [ [ [ 256251.077800000086427, 7038093.324999999254942 ], [ 256252.103900000452995, 7038094.404500000178814 ], [ 256253.334800000302494, 7038095.203499998897314 ], [ 256254.150799999944866, 7038095.116799999028444 ], [ 256255.373399999924004, 7038094.650199998170137 ], [ 256256.77240000013262, 7038093.815200001001358 ], [ 256258.301799999549985, 7038092.013099998235703 ], [ 256259.846900000236928, 7038091.2347999997437 ], [ 256262.1402000002563, 7038091.039500001817942 ], [ 256264.122299999929965, 7038089.456199999898672 ], [ 256265.913499999791384, 7038087.659699998795986 ], [ 256268.795400000177324, 7038084.635000001639128 ], [ 256273.307300000451505, 7038078.63289999961853 ], [ 256275.002600000239909, 7038078.383200000971556 ], [ 256278.011699999682605, 7038077.889400001615286 ], [ 256281.19620000012219, 7038076.695700000971556 ], [ 256282.546699999831617, 7038077.161899998784065 ], [ 256284.228900000452995, 7038078.913499999791384 ] ] ] } },
{ "type": "Feature", "properties": { "fid": 1055, "objtype": "ElvBekk", "lokalid": "cdc74637-ae22-4870-bea5-b0e465c5c950", "medium": "T", "vannbredde": 1.0, "vannsperretype": null, "arealRegineEnhet_km2": null, "elveordenStrahler": null, "catch_area": 0.34020834722395693, "water_depth": 0.51724177610919841, "gradient": 0.0, "aggressive": 0.0, "aggressiveness": 0.0, "id": 1055 }, "geometry": { "type": "MultiLineString", "coordinates": [ [ [ 258141.920199999585748, 7035655.9923 ], [ 258130.935100000351667, 7035689.920200001448393 ], [ 258126.781700000166893, 7035700.38120000064373 ], [ 258122.577399999834597, 7035705.057700000703335 ], [ 258112.920599999837577, 7035715.673799999058247 ], [ 258103.566200000233948, 7035728.010299999266863 ] ] ] } },
{ "type": "Feature", "properties": { "fid": 1345, "objtype": "ElvBekk", "lokalid": "06c8ece0-89dc-4293-b3e4-72137415b025", "medium": "T", "vannbredde": 1.0, "vannsperretype": null, "arealRegineEnhet_km2": null, "elveordenStrahler": null, "catch_area": 0.062626028220368432, "water_depth": 0.34458468495363742, "gradient": 0.0, "aggressive": 0.0, "aggressiveness": 0.0, "id": 1345 }, "geometry": { "type": "MultiLineString", "coordinates": [ [ [ 257242.816300000064075, 7038932.613699998706579 ], [ 257243.098600000143051, 7038933.692699998617172 ], [ 257243.2171, 7038934.52589999884367 ], [ 257242.855700000189245, 7038936.670499999076128 ], [ 257242.726099999621511, 7038937.858600001782179 ], [ 257242.693900000303984, 7038938.907000001519918 ], [ 257242.815799999982119, 7038939.669399999082088 ], [ 257243.128600000403821, 7038940.645100001245737 ], [ 257244.805800000205636, 7038943.734000001102686 ], [ 257245.942099999636412, 7038946.200300000607967 ], [ 257246.75829999987036, 7038948.897599998861551 ] ] ] } },
{ "type": "Feature", "properties": { "fid": 558, "objtype": "Elvekant", "lokalid": "44d91fc2-5bac-46b9-b3ad-678f0a0ba8f4", "medium": "T", "vannbredde": null, "vannsperretype": null, "arealRegineEnhet_km2": null, "elveordenStrahler": null, "catch_area": 12.166821210678261, "water_depth": 1.5, "gradient": 0.0, "aggressive": 0.0, "aggressiveness": 0.0, "id": 558 }, "geometry": { "type": "MultiLineString", "coordinates": [ [ [ 256924.514042461843928, 7037478.168342389166355 ], [ 256925.301500000059605, 7037475.602299999445677 ], [ 256926.233, 7037468.398800000548363 ], [ 256926.621799999848008, 7037461.5176 ] ] ] } },
{ "type": "Feature", "properties": { "fid": 1097, "objtype": "Elvekant", "lokalid": "1f197632-2c0f-44bf-a949-07b52537c380", "medium": "T", "vannbredde": null, "vannsperretype": null, "arealRegineEnhet_km2": null, "elveordenStrahler": null, "catch_area": 1.3074891802279363, "water_depth": 1.5, "gradient": 0.0, "aggressive": 0.0, "aggressiveness": 0.0, "id": 1097 }, "geometry": { "type": "MultiLineString", "coordinates": [ [ [ 258190.690799999982119, 7036669.526900000870228 ], [ 258190.28760000038892, 7036669.192899998277426 ], [ 258182.608099999837577, 7036659.340700000524521 ], [ 258180.709999999962747, 7036656.895799998193979 ], [ 258176.615600000135601, 7036650.4358000010252 ], [ 258173.825000000186265, 7036643.410999998450279 ], [ 258168.128800000064075, 7036632.096200000494719 ], [ 258167.096199999563396, 7036631.268500000238419 ], [ 258166.172100000083447, 7036630.953299999237061 ], [ 258165.060899999924004, 7036630.786299999803305 ] ] ] } },
{ "type": "Feature", "properties": { "fid": 1084, "objtype": "ElvBekk", "lokalid": "35bd3ab1-89d9-45fa-80df-4712159fa6dd", "medium": "T", "vannbredde": 1.0, "vannsperretype": null, "arealRegineEnhet_km2": null, "elveordenStrahler": null, "catch_area": 0.072204066358496174, "water_depth": 0.35655751992246626, "gradient": 0.0, "aggressive": 0.0, "aggressiveness": 0.0, "id": 1084 }, "geometry": { "type": "MultiLineString", "coordinates": [ [ [ 258474.489099999889731, 7035614.776900000870228 ], [ 258472.064199999906123, 7035614.321199998259544 ], [ 258470.552400000393391, 7035614.7043999992311 ], [ 258470.083499999716878, 7035614.848999999463558 ], [ 258469.685999999754131, 7035614.89640000090003 ], [ 258469.345999999903142, 7035614.807700000703335 ], [ 258467.59360000025481, 7035614.127999998629093 ] ] ] } },
{ "type": "Feature", "properties": { "fid": 615, "objtype": "Innsjøkant", "lokalid": "ff3de308-0731-425c-945b-8e013b41045b", "medium": "T", "vannbredde": null, "vannsperretype": null, "arealRegineEnhet_km2": null, "elveordenStrahler": null, "catch_area": 2.583116828483218, "water_depth": 1.0, "gradient": 0.0, "aggressive": 0.0, "aggressiveness": 0.0, "id": 615 }, "geometry": { "type": "MultiLineString", "coordinates": [ [ [ 256350.219899999909103, 7038080.694899998605251 ], [ 256348.171400000341237, 7038078.5757 ], [ 256346.212299999780953, 7038076.337400000542402 ], [ 256344.99210000038147, 7038076.080200001597404 ], [ 256343.662800000049174, 7038076.908599998801947 ], [ 256342.188699999824166, 7038078.122499998658895 ], [ 256340.457600000314415, 7038079.380699999630451 ], [ 256338.916699999943376, 7038079.4551 ], [ 256336.781000000424683, 7038078.761199999600649 ], [ 256334.93819999974221, 7038077.547200001776218 ], [ 256333.287800000049174, 7038075.812699999660254 ], [ 256331.450799999758601, 7038074.447500001639128 ], [ 256327.561599999666214, 7038073.596599999815226 ], [ 256324.614400000311434, 7038072.074400000274181 ], [ 256322.118900000117719, 7038070.11769999936223 ], [ 256320.786000000312924, 7038068.554299999028444 ], [ 256318.984899999573827, 7038067.356600001454353 ], [ 256317.106999999843538, 7038066.517900001257658 ], [ 256315.105700000189245, 7038066.504900000989437 ], [ 256312.684700000099838, 7038066.732299998402596 ], [ 256308.406899999827147, 7038067.737199999392033 ], [ 256306.971300000324845, 7038068.183600001037121 ], [ 256306.412299999967217, 7038068.7588 ], [ 256304.801199999637902, 7038069.583500001579523 ], [ 256303.512900000438094, 7038069.885499998927116 ], [ 256302.292600000277162, 7038069.628199998289347 ], [ 256301.278500000014901, 7038069.210900001227856 ], [ 256299.865399999544024, 7038068.398800000548363 ], [ 256298.316899999976158, 7038067.428599998354912 ], [ 256295.38219999987632, 7038066.14640000090003 ], [ 256293.809000000357628, 7038066.304299999028444 ], [ 256292.652499999850988, 7038065.870099999010563 ], [ 256291.548299999907613, 7038065.029100000858307 ], [ 256290.677699999883771, 7038064.749000001698732 ], [ 256289.146200000308454, 7038064.923000000417233 ], [ 256288.362399999983609, 7038065.458999998867512 ], [ 256287.793700000271201, 7038066.467300001531839 ], [ 256287.556300000287592, 7038067.042399998754263 ] ] ] } },
{ "type": "Feature", "properties": { "fid": 1237, "objtype": "ElvBekk", "lokalid": "64108812-f4de-4bd3-94b4-5718319c6016", "medium": "T", "vannbredde": 1.0, "vannsperretype": null, "arealRegineEnhet_km2": null, "elveordenStrahler": null, "catch_area": 0.38164910764805215, "water_depth": 0.53170925896772248, "gradient": 0.0, "aggressive": 0.0, "aggressiveness": 0.0, "id": 1237 }, "geometry": { "type": "MultiLineString", "coordinates": [ [ [ 258826.586047569726361, 7038837.410262198187411 ], [ 258820.950500000268221, 7038837.968299999833107 ], [ 258812.439699999988079, 7038840.02419999986887 ], [ 258808.598899999633431, 7038841.400100000202656 ], [ 258804.226534051646013, 7038843.881650728173554 ] ] ] } },
{ "type": "Feature", "properties": { "fid": 1357, "objtype": "ElvBekk", "lokalid": "31fdf7ac-9bd7-4090-a879-c90d65ba905e", "medium": "T", "vannbredde": 1.0, "vannsperretype": null, "arealRegineEnhet_km2": null, "elveordenStrahler": null, "catch_area": 0.42279848202204462, "water_depth": 0.54493766104392105, "gradient": 0.0, "aggressive": 0.0, "aggressiveness": 0.0, "id": 1357 }, "geometry": { "type": "MultiLineString", "coordinates": [ [ [ 257073.940782381250756, 7039336.749525750055909 ], [ 257073.517199999652803, 7039336.251899998635054 ], [ 257068.731599999591708, 7039330.459899999201298 ], [ 257063.079400000162423, 7039322.719000000506639 ], [ 257027.335476398002356, 7039248.643546108156443 ] ] ] } },
{ "type": "Feature", "properties": { "fid": 245, "objtype": "Kystkontur", "lokalid": "3e64d538-2386-445f-9c08-1f1b93e2b9fd", "medium": "T", "vannbredde": null, "vannsperretype": null, "arealRegineEnhet_km2": null, "elveordenStrahler": null, "catch_area": 0.0095560048037101591, "water_depth": 7.5, "gradient": 0.0, "aggressive": 0.0, "aggressiveness": 0.0, "id": 245 }, "geometry": { "type": "MultiLineString", "coordinates": [ [ [ 253601.050415149220498, 7036508.851816270500422 ], [ 253601.282100000418723, 7036510.754900000989437 ], [ 253602.227699999697506, 7036513.972899999469519 ], [ 253602.394500000402331, 7036515.535300001502037 ], [ 253602.048700000159442, 7036517.738800000399351 ], [ 253602.412399999797344, 7036520.006400000303984 ], [ 253602.823800000362098, 7036522.138799998909235 ], [ 253603.756699999794364, 7036525.971099998801947 ], [ 253604.065499999560416, 7036527.4397 ], [ 253604.848199999891222, 7036529.245700001716614 ], [ 253606.198400000110269, 7036529.923000000417233 ], [ 253606.620600000023842, 7036530.245200000703335 ], [ 253607.033200000412762, 7036531.854800000786781 ], [ 253607.333300000056624, 7036533.444899998605251 ], [ 253607.9057, 7036534.6173 ], [ 253609.16509999986738, 7036535.825800001621246 ], [ 253609.650600000284612, 7036536.393300000578165 ], [ 253610.376600000075996, 7036537.702100001275539 ], [ 253611.276700000278652, 7036537.868900001049042 ], [ 253611.976400000043213, 7036537.933800000697374 ], [ 253612.819899999536574, 7036538.568199999630451 ], [ 253613.451100000180304, 7036538.760200001299381 ], [ 253614.9852, 7036538.827199999243021 ], [ 253616.624400000087917, 7036538.301300000399351 ], [ 253617.512299999594688, 7036538.0168999992311 ], [ 253617.994300000369549, 7036538.333500001579523 ], [ 253620.44649999961257, 7036539.721400000154972 ], [ 253621.97620000038296, 7036541.346700001507998 ], [ 253624.441700000315905, 7036542.341400001198053 ], [ 253626.09250000026077, 7036542.367199998348951 ], [ 253627.935700000263751, 7036542.1941 ], [ 253631.079199999570847, 7036542.381299998611212 ], [ 253635.334699999541044, 7036541.780600000172853 ], [ 253637.16330000013113, 7036541.880199998617172 ], [ 253638.310800000093877, 7036542.646899998188019 ], [ 253640.009300000034273, 7036544.67850000038743 ], [ 253640.637000000104308, 7036548.258099999278784 ], [ 253640.962600000202656, 7036549.584399998188019 ], [ 253642.214999999850988, 7036550.290899999439716 ], [ 253643.815700000151992, 7036550.532600000500679 ], [ 253646.22759999986738, 7036551.49210000038147 ], [ 253646.81319999974221, 7036551.306400001049042 ], [ 253647.696399999782443, 7036550.650499999523163 ], [ 253648.203499999828637, 7036549.627900000661612 ], [ 253649.170099999755621, 7036547.185199998319149 ], [ 253649.841799999587238, 7036545.775299999862909 ], [ 253650.041600000113249, 7036545.655999999493361 ], [ 253651.351800000295043, 7036545.69370000064373 ], [ 253652.117499999701977, 7036546.033900000154972 ], [ 253653.147499999962747, 7036547.796599999070168 ], [ 253654.537200000137091, 7036550.178899999707937 ], [ 253656.037899999879301, 7036552.138599999248981 ], [ 253657.450600000098348, 7036554.016100000590086 ], [ 253659.607599999755621, 7036555.471999999135733 ], [ 253661.839999999850988, 7036556.980999998748302 ], [ 253662.589999999850988, 7036556.940699998289347 ], [ 253662.652375372272218, 7036556.908100665546954 ] ] ] } },
{ "type": "Feature", "properties": { "fid": 1430, "objtype": "Elvekant", "lokalid": "62f78084-efa8-468c-ab3e-5ccc138e89c5", "medium": "T", "vannbredde": null, "vannsperretype": null, "arealRegineEnhet_km2": null, "elveordenStrahler": null, "catch_area": 6.1071659328507737, "water_depth": 1.5, "gradient": 0.0, "aggressive": 0.0, "aggressiveness": 0.0, "id": 1430 }, "geometry": { "type": "MultiLineString", "coordinates": [ [ [ 259435.0, 7042535.924860406666994 ], [ 259431.924599999561906, 7042537.657699998468161 ], [ 259424.752899999730289, 7042540.593100000172853 ], [ 259416.615600000135601, 7042543.629200000315905 ], [ 259410.338999999687076, 7042549.24439999833703 ], [ 259405.68030000012368, 7042554.858300000429153 ], [ 259401.617999999783933, 7042558.154800001531839 ], [ 259399.04619999974966, 7042561.8037 ], [ 259394.221800000406802, 7042565.654199998825788 ], [ 259389.401100000366569, 7042567.725400000810623 ], [ 259386.023699999786913, 7042568.04280000180006 ], [ 259382.229000000283122, 7042569.052700001746416 ], [ 259379.445600000210106, 7042570.44990000128746 ], [ 259376.972299999557436, 7042573.436299998313189 ], [ 259375.313799999654293, 7042574.717799998819828 ], [ 259373.770600000396371, 7042575.516100000590086 ], [ 259372.052099999971688, 7042576.160100001841784 ], [ 259370.012099999934435, 7042578.623199999332428 ], [ 259365.407999999821186, 7042583.106300000101328 ], [ 259360.573599999770522, 7042591.983199998736382 ], [ 259359.020800000056624, 7042594.390500001609325 ], [ 259358.563144347834168, 7042594.818887727335095 ] ] ] } },
{ "type": "Feature", "properties": { "fid": 272, "objtype": "ElvBekk", "lokalid": "50bb4853-670f-4a6d-b043-5d47b46acb76", "medium": "T", "vannbredde": 1.0, "vannsperretype": null, "arealRegineEnhet_km2": null, "elveordenStrahler": null, "catch_area": 0.17975329001964799, "water_depth": 0.44381016618483232, "gradient": 0.0, "aggressive": 0.0, "aggressiveness": 0.0, "id": 272 }, "geometry": { "type": "MultiLineString", "coordinates": [ [ [ 256649.479399999603629, 7035980.346200000494719 ], [ 256654.84389999974519, 7035980.10359999909997 ] ] ] } },
{ "type": "Feature", "properties": { "fid": 382, "objtype": "ElvBekk", "lokalid": "9b477180-6561-4e55-a408-51ac09e14525", "medium": "T", "vannbredde": 1.0, "vannsperretype": null, "arealRegineEnhet_km2": null, "elveordenStrahler": null, "catch_area": 17.535139668381085, "water_depth": 1.3323337144141953, "gradient": 0.0, "aggressive": 0.0, "aggressiveness": 0.0, "id": 382 }, "geometry": { "type": "MultiLineString", "coordinates": [ [ [ 257023.761900000274181, 7036621.9485 ], [ 257025.753600000403821, 7036620.253800000995398 ], [ 257028.123800000175834, 7036619.377900000661612 ], [ 257031.250799999572337, 7036618.320300001651049 ], [ 257034.690799999982119, 7036617.705699998885393 ], [ 257037.116200000047684, 7036618.060899998992682 ], [ 257041.702100000344217, 7036620.1228 ], [ 257047.721099999733269, 7036623.638099998235703 ] ] ] } },
{ "type": "Feature", "properties": { "fid": 888, "objtype": "ElvBekk", "lokalid": "da0078eb-348e-402a-a956-8a03e83076da", "medium": "T", "vannbredde": 1.0, "vannsperretype": null, "arealRegineEnhet_km2": null, "elveordenStrahler": null, "catch_area": 0.26904294373977738, "water_depth": 0.48891345373944789, "gradient": 0.0, "aggressive": 0.0, "aggressiveness": 0.0, "id": 888 }, "geometry": { "type": "MultiLineString", "coordinates": [ [ [ 256622.062770035176072, 7039490.464284638874233 ], [ 256627.302699999883771, 7039472.400199998170137 ], [ 256632.001400000415742, 7039449.02250000089407 ], [ 256630.865699999965727, 7039433.831700000911951 ], [ 256628.783800000324845, 7039428.14750000089407 ], [ 256622.705199999734759, 7039420.788400001823902 ], [ 256606.274419159482932, 7039399.978637129999697 ] ] ] } },
{ "type": "Feature", "properties": { "fid": 585, "objtype": "Innsjøkant", "lokalid": "24eff26a-caf3-44c7-9792-f8703736998e", "medium": "T", "vannbredde": null, "vannsperretype": null, "arealRegineEnhet_km2": null, "elveordenStrahler": null, "catch_area": 10.003797957644466, "water_depth": 0.25, "gradient": 0.0, "aggressive": 0.0, "aggressiveness": 0.0, "id": 585 }, "geometry": { "type": "MultiLineString", "coordinates": [ [ [ 256901.048799999989569, 7037723.092300001531839 ], [ 256899.394899999722838, 7037721.428399998694658 ], [ 256897.980100000277162, 7037721.239700000733137 ], [ 256896.314100000075996, 7037721.265500001609325 ], [ 256895.315299999900162, 7037721.439800001680851 ], [ 256894.03870000038296, 7037720.795800000429153 ] ] ] } },
{ "type": "Feature", "properties": { "fid": 577, "objtype": "Elvekant", "lokalid": "605b850c-e070-44ff-93e1-98839e9c9373", "medium": "T", "vannbredde": null, "vannsperretype": null, "arealRegineEnhet_km2": null, "elveordenStrahler": null, "catch_area": 3.7415220393199129, "water_depth": 1.5, "gradient": 0.0, "aggressive": 0.0, "aggressiveness": 0.0, "id": 577 }, "geometry": { "type": "MultiLineString", "coordinates": [ [ [ 256955.377005384623772, 7037612.623526493087411 ], [ 256952.143799999728799, 7037613.914099998772144 ], [ 256948.071399999782443, 7037615.713799998164177 ] ] ] } },
{ "type": "Feature", "properties": { "fid": 100, "objtype": "Kystkontur", "lokalid": "db9c9801-418f-41c4-9c46-f6d757bc8e84", "medium": "T", "vannbredde": null, "vannsperretype": null, "arealRegineEnhet_km2": null, "elveordenStrahler": null, "catch_area": 0.059436863312434175, "water_depth": 1.0, "gradient": 0.0, "aggressive": 0.0, "aggressiveness": 0.0, "id": 100 }, "geometry": { "type": "MultiLineString", "coordinates": [ [ [ 256929.994595236465102, 7033521.865028570406139 ], [ 256930.945000000298023, 7033521.287200000137091 ], [ 256933.116799999959767, 7033520.1184 ], [ 256934.774799999780953, 7033518.9375 ], [ 256936.040599999949336, 7033518.07490000128746 ], [ 256938.108799999579787, 7033517.08669999986887 ], [ 256939.694099999964237, 7033516.415199998766184 ], [ 256941.110000000335276, 7033516.081199999898672 ], [ 256942.473299999721348, 7033515.400400001555681 ], [ 256943.847199999727309, 7033514.618099998682737 ], [ 256945.658400000073016, 7033513.462999999523163 ], [ 256948.656999999657273, 7033511.251600001007318 ], [ 256950.794800000265241, 7033509.935199998319149 ], [ 256954.161000000312924, 7033506.714499998837709 ], [ 256955.284199999645352, 7033506.046100001782179 ], [ 256956.864799999631941, 7033505.003199998289347 ], [ 256958.252600000239909, 7033504.048700001090765 ], [ 256960.240399999544024, 7033502.846900001168251 ], [ 256962.284099999815226, 7033500.956399999558926 ], [ 256963.341900000348687, 7033500.233899999409914 ], [ 256964.774299999698997, 7033499.325500000268221 ], [ 256968.456600000150502, 7033497.009700000286102 ], [ 256970.322399999946356, 7033496.543000001460314 ], [ 256971.641800000332296, 7033496.037200000137091 ], [ 256973.072100000455976, 7033495.641600001603365 ], [ 256974.273199999704957, 7033495.267499998211861 ], [ 256977.23589999973774, 7033494.064599998295307 ], [ 256978.265100000426173, 7033493.787000000476837 ], [ 256980.869400000199676, 7033492.728300001472235 ], [ 256983.355000000447035, 7033491.369199998676777 ], [ 256984.74100000038743, 7033490.716400001198053 ], [ 256986.271499999798834, 7033489.8893 ], [ 256988.947100000455976, 7033489.055100001394749 ], [ 256990.090599999763072, 7033488.81700000166893 ], [ 256991.144799999892712, 7033488.376299999654293 ], [ 256992.397599999792874, 7033488.017400000244379 ], [ 256994.773400000296533, 7033487.522999998182058 ], [ 256996.243200000375509, 7033487.013099998235703 ], [ 256998.289900000207126, 7033486.438900001347065 ], [ 256999.433899999596179, 7033486.633000001311302 ], [ 257000.564699999988079, 7033486.687699999660254 ], [ 257002.198599999770522, 7033486.534200001507998 ], [ 257004.091300000436604, 7033486.567600000649691 ], [ 257005.785000000149012, 7033486.408500000834465 ], [ 257007.627799999900162, 7033486.124899998307228 ], [ 257010.191300000064075, 7033485.059999998658895 ], [ 257012.220599999651313, 7033484.4070999994874 ], [ 257014.009899999946356, 7033484.088300000876188 ], [ 257015.114199999719858, 7033484.075100000947714 ], [ 257016.782399999909103, 7033484.1798 ], [ 257019.497700000181794, 7033483.874499998986721 ], [ 257019.971452552941628, 7033483.685117713175714 ] ] ] } },
{ "type": "Feature", "properties": { "fid": 916, "objtype": "ElvBekk", "lokalid": "b1f389d5-11ba-4ea3-a67f-4fd94d5602fa", "medium": "T", "vannbredde": 1.0, "vannsperretype": null, "arealRegineEnhet_km2": null, "elveordenStrahler": null, "catch_area": 1.657230256528762, "water_depth": 0.75635675095216137, "gradient": 0.0, "aggressive": 0.0, "aggressiveness": 0.0, "id": 916 }, "geometry": { "type": "MultiLineString", "coordinates": [ [ [ 256848.513000000268221, 7041319.00959999859333 ], [ 256850.244300000369549, 7041321.389800000935793 ], [ 256854.150000000372529, 7041323.485300000756979 ], [ 256857.94649999961257, 7041324.525600001215935 ], [ 256859.306699999608099, 7041324.02589999884367 ], [ 256860.716199999675155, 7041323.089400000870228 ], [ 256861.989500000141561, 7041322.306400001049042 ], [ 256864.875900000333786, 7041321.683400001376867 ], [ 256867.382299999706447, 7041322.151500001549721 ], [ 256868.621600000187755, 7041322.718499999493361 ], [ 256879.963399999774992, 7041331.321800000965595 ], [ 256880.846400000154972, 7041333.017799999564886 ], [ 256880.89780000038445, 7041334.420099999755621 ], [ 256878.902900000102818, 7041348.809500001370907 ], [ 256878.905399999581277, 7041353.221700001507998 ], [ 256879.710099999792874, 7041367.669599998742342 ], [ 256884.900399999693036, 7041382.901599999517202 ], [ 256887.613205299887341, 7041392.665625171735883 ] ] ] } },
{ "type": "Feature", "properties": { "fid": 50, "objtype": "Elvekant", "lokalid": "f57b5406-0275-49b4-9a93-3d21398d95c2", "medium": "T", "vannbredde": null, "vannsperretype": null, "arealRegineEnhet_km2": null, "elveordenStrahler": null, "catch_area": 20.973357248191736, "water_depth": 1.5, "gradient": 0.0, "aggressive": 0.0, "aggressiveness": 0.0, "id": 50 }, "geometry": { "type": "MultiLineString", "coordinates": [ [ [ 256609.522886487888172, 7034823.526501781307161 ], [ 256608.663599999621511, 7034819.6418999992311 ], [ 256608.692200000397861, 7034815.558499999344349 ], [ 256609.605899999849498, 7034809.341699998825788 ], [ 256611.606499999761581, 7034804.5304000005126 ], [ 256612.862700000405312, 7034801.96000000089407 ], [ 256614.118900000117719, 7034799.389600001275539 ], [ 256615.779299999587238, 7034793.52479999884963 ], [ 256616.404299999587238, 7034788.621500000357628 ], [ 256615.971800000406802, 7034786.37049999833107 ], [ 256614.566700000315905, 7034780.934300001710653 ], [ 256611.572800000198185, 7034775.596999999135733 ], [ 256608.064299999736249, 7034772.05689999833703 ], [ 256603.417200000025332, 7034767.096000000834465 ], [ 256600.315499999560416, 7034764.784099999815226 ], [ 256598.381299999542534, 7034764.523499999195337 ], [ 256594.795699999667704, 7034763.694400001317263 ], [ 256589.157800000160933, 7034759.741099998354912 ], [ 256586.1261, 7034757.211599998176098 ], [ 256584.078599999658763, 7034755.102200001478195 ], [ 256583.040000000037253, 7034753.460999999195337 ], [ 256581.428600000217557, 7034750.536699999123812 ], [ 256579.31209999974817, 7034746.835700001567602 ], [ 256577.93059999961406, 7034745.075899999588728 ], [ 256575.750518529879628, 7034743.288550850003958 ] ] ] } },
{ "type": "Feature", "properties": { "fid": 340, "objtype": "ElvBekk", "lokalid": "ffd9d0c7-6e0d-4837-b412-d3de91b390e8", "medium": "U", "vannbredde": 1.0, "vannsperretype": null, "arealRegineEnhet_km2": null, "elveordenStrahler": null, "catch_area": 0.3185568561338783, "water_depth": 0.50914287699939553, "gradient": 0.0, "aggressive": 0.0, "aggressiveness": 0.0, "id": 340 }, "geometry": { "type": "MultiLineString", "coordinates": [ [ [ 256136.738699999637902, 7037009.848400000482798 ], [ 256137.012699999846518, 7037009.661899998784065 ], [ 256138.102699999697506, 7037009.388599999248981 ], [ 256144.028800000436604, 7037008.811900001019239 ] ] ] } },
{ "type": "Feature", "properties": { "fid": 463, "objtype": "Elvekant", "lokalid": "0bb4f07a-4921-4ffc-bfdd-f4fc3dacefea", "medium": "T", "vannbredde": null, "vannsperretype": null, "arealRegineEnhet_km2": null, "elveordenStrahler": null, "catch_area": 3.2469259886631505, "water_depth": 1.5, "gradient": 0.0, "aggressive": 0.0, "aggressiveness": 0.0, "id": 463 }, "geometry": { "type": "MultiLineString", "coordinates": [ [ [ 257462.314799999818206, 7037896.905900001525879 ], [ 257461.350300000049174, 7037897.016600001603365 ], [ 257459.340699999593198, 7037897.878800000995398 ], [ 257458.609400000423193, 7037898.1184 ], [ 257458.056800000369549, 7037898.763300001621246 ], [ 257457.82039999961853, 7037899.670000001788139 ], [ 257457.803399999625981, 7037900.666600000113249 ], [ 257457.686900000087917, 7037901.994199998676777 ], [ 257457.123599999584258, 7037902.951699998229742 ], [ 257455.933699999935925, 7037903.44539999961853 ], [ 257454.646900000050664, 7037903.656800001859665 ], [ 257453.164599999785423, 7037903.605000000447035 ], [ 257452.066100000403821, 7037903.467000000178814 ], [ 257450.722500000149012, 7037902.537900000810623 ], [ 257449.485000000335276, 7037901.669100001454353 ], [ 257448.318400000222027, 7037901.768699999898672 ], [ 257444.66579999960959, 7037902.473600000143051 ], [ 257443.461500000208616, 7037902.38569999858737 ], [ 257441.571399999782443, 7037900.77419999986887 ], [ 257440.517099999822676, 7037899.074200000613928 ], [ 257438.191300000064075, 7037896.890500001609325 ], [ 257436.645600000396371, 7037894.452599998563528 ], [ 257435.947399999946356, 7037893.33219999819994 ], [ 257434.803600000217557, 7037892.2837999984622 ], [ 257433.648000000044703, 7037891.537999998778105 ], [ 257432.214499999769032, 7037891.149999998509884 ], [ 257430.534300000406802, 7037891.559099998325109 ], [ 257429.648199999704957, 7037891.863499999046326 ], [ 257428.691700000315905, 7037891.631700001657009 ], [ 257428.113699999637902, 7037890.721099998801947 ], [ 257427.364000000059605, 7037889.374400001019239 ], [ 257426.124900000169873, 7037887.953000001609325 ], [ 257424.504099999554455, 7037886.42680000141263 ], [ 257424.663599999621511, 7037885.557399999350309 ], [ 257427.395499999634922, 7037884.466600000858307 ], [ 257428.71750000026077, 7037884.523299999535084 ], [ 257429.798299999907613, 7037885.115299999713898 ], [ 257430.753600000403821, 7037885.5482 ], [ 257431.423899999819696, 7037885.5154 ], [ 257432.340699999593198, 7037884.896600000560284 ], [ 257434.239699999801815, 7037881.893899999558926 ], [ 257435.691899999976158, 7037879.16440000012517 ], [ 257435.924899999983609, 7037878.006700001657009 ], [ 257435.511800000444055, 7037876.819299999624491 ], [ 257433.372100000269711, 7037874.47749999910593 ], [ 257429.394299999810755, 7037872.469099998474121 ], [ 257426.678000000305474, 7037870.302000001072884 ], [ 257424.251199999824166, 7037869.1831 ], [ 257421.837799999862909, 7037868.314300000667572 ], [ 257419.459999999962747, 7037866.64809999987483 ], [ 257417.967799999751151, 7037865.421300001442432 ], [ 257416.673999999649823, 7037864.487500000745058 ], [ 257415.499400000087917, 7037863.432 ], [ 257414.13910000026226, 7037861.790800001472235 ], [ 257412.628600000403821, 7037860.796900000423193 ], [ 257410.813000000081956, 7037860.5152000002563 ], [ 257409.637600000016391, 7037860.0929000005126 ], [ 257409.577569726592628, 7037860.043179914355278 ] ] ] } },
{ "type": "Feature", "properties": { "fid": 1521, "objtype": "Elvekant", "lokalid": "abea953b-3180-4844-96d8-3acf2a603d27", "medium": "T", "vannbredde": null, "vannsperretype": null, "arealRegineEnhet_km2": null, "elveordenStrahler": null, "catch_area": 1.9569496873608831, "water_depth": 1.5, "gradient": 0.0, "aggressive": 0.0, "aggressiveness": 0.0, "id": 1521 }, "geometry": { "type": "MultiLineString", "coordinates": [ [ [ 257998.635599999688566, 7042514.407200001180172 ], [ 257997.751600000075996, 7042517.193900000303984 ], [ 257997.277800000272691, 7042518.675700001418591 ], [ 257996.717299999669194, 7042519.9847999997437 ], [ 257995.940999999642372, 7042520.9221 ], [ 257993.521900000050664, 7042523.842999998480082 ], [ 257991.314899999648333, 7042527.095800001174212 ] ] ] } },
{ "type": "Feature", "properties": { "fid": 1616, "objtype": "ElvBekk", "lokalid": "5c6e6549-6e83-4204-b1de-aea22589b9a0", "medium": "T", "vannbredde": 1.0, "vannsperretype": null, "arealRegineEnhet_km2": null, "elveordenStrahler": null, "catch_area": 0.015304537497729434, "water_depth": 0.24571499076183426, "gradient": 0.0, "aggressive": 0.0, "aggressiveness": 0.0, "id": 1616 }, "geometry": { "type": "MultiLineString", "coordinates": [ [ [ 254374.957802052085754, 7040462.286544444970787 ], [ 254372.674899999983609, 7040465.150800000876188 ], [ 254370.825400000438094, 7040466.540800001472235 ], [ 254367.301199999637902, 7040468.078000001609325 ], [ 254365.037399999797344, 7040469.979299999773502 ], [ 254356.339300000108778, 7040478.495700001716614 ], [ 254353.304800000041723, 7040480.218100000172853 ], [ 254351.17339999973774, 7040483.634700000286102 ], [ 254346.847099999897182, 7040494.393800001591444 ] ] ] } },
{ "type": "Feature", "properties": { "fid": 844, "objtype": "ElvBekk", "lokalid": "5ca89df2-0d66-48b5-b7f5-f196f5fa2158", "medium": "T", "vannbredde": 1.0, "vannsperretype": null, "arealRegineEnhet_km2": null, "elveordenStrahler": null, "catch_area": 5.9609999834898879, "water_depth": 1.0283747190153496, "gradient": 0.0, "aggressive": 0.0, "aggressiveness": 0.0, "id": 844 }, "geometry": { "type": "MultiLineString", "coordinates": [ [ [ 256849.01659999974072, 7037961.281599998474121 ], [ 256847.26410000026226, 7037953.325100000947714 ], [ 256846.328900000080466, 7037947.221500001847744 ], [ 256846.063500000163913, 7037945.145799998193979 ], [ 256846.149100000038743, 7037939.850999999791384 ], [ 256846.227400000207126, 7037938.758200000971556 ], [ 256846.552799999713898, 7037937.3004 ], [ 256847.044099999591708, 7037935.5757 ], [ 256848.112399999983609, 7037931.113299999386072 ], [ 256848.110000000335276, 7037930.017900001257658 ], [ 256847.964399999938905, 7037928.574200000613928 ], [ 256847.416000000201166, 7037924.876800000667572 ], [ 256847.113400000147521, 7037923.045800000429153 ] ] ] } },
{ "type": "Feature", "properties": { "fid": 523, "objtype": "ElvBekk", "lokalid": "6d6703d3-536e-4c43-a304-1a20d521b1ac", "medium": "T", "vannbredde": 1.0, "vannsperretype": null, "arealRegineEnhet_km2": null, "elveordenStrahler": null, "catch_area": 1.5663632587558127, "water_depth": 0.74618927001843538, "gradient": 0.0, "aggressive": 0.0, "aggressiveness": 0.0, "id": 523 }, "geometry": { "type": "MultiLineString", "coordinates": [ [ [ 255813.431800000369549, 7038107.590500000864267 ], [ 255815.979700000025332, 7038108.285900000482798 ], [ 255817.488699999637902, 7038109.370299998670816 ], [ 255821.561999999918044, 7038112.073300000280142 ] ] ] } },
{ "type": "Feature", "properties": { "fid": 353, "objtype": "ElvBekk", "lokalid": "58a7bd67-df72-4993-b6e5-b31be13383b0", "medium": "T", "vannbredde": 1.0, "vannsperretype": null, "arealRegineEnhet_km2": null, "elveordenStrahler": null, "catch_area": 0.0999586966088757, "water_depth": 0.38550653368171639, "gradient": 0.0, "aggressive": 0.0, "aggressiveness": 0.0, "id": 353 }, "geometry": { "type": "MultiLineString", "coordinates": [ [ [ 255923.901999999769032, 7037147.908900000154972 ], [ 255927.535600000061095, 7037148.71339999884367 ], [ 255933.081600000150502, 7037149.760400000959635 ], [ 255937.103000000119209, 7037149.9857 ], [ 255939.649699999950826, 7037149.384700000286102 ], [ 255942.534099999815226, 7037147.776999998837709 ] ] ] } },
{ "type": "Feature", "properties": { "fid": 186, "objtype": "ElvBekk", "lokalid": "2f014c11-553d-451d-8c0d-a7ddf8f1ac87", "medium": "T", "vannbredde": 1.0, "vannsperretype": null, "arealRegineEnhet_km2": null, "elveordenStrahler": null, "catch_area": 13.0407582719098, "water_depth": 1.2409305757593827, "gradient": 0.0, "aggressive": 0.0, "aggressiveness": 0.0, "id": 186 }, "geometry": { "type": "MultiLineString", "coordinates": [ [ [ 256996.995500000193715, 7036541.361900001764297 ], [ 256997.7171, 7036540.590599998831749 ], [ 256999.927000000141561, 7036538.543699998408556 ], [ 257000.689000000245869, 7036537.989700000733137 ], [ 257002.365899999625981, 7036537.329599998891354 ], [ 257003.86780000012368, 7036537.269000001251698 ], [ 257004.524699999950826, 7036537.307799998670816 ], [ 257006.893600000068545, 7036537.809000000357628 ], [ 257015.948599999770522, 7036543.471400000154972 ], [ 257018.731200000271201, 7036544.2051 ], [ 257026.362099999561906, 7036546.26240000128746 ], [ 257028.13150000013411, 7036546.267099998891354 ], [ 257029.436700000427663, 7036546.144499998539686 ], [ 257029.624699999578297, 7036546.00620000064373 ], [ 257029.806099999696016, 7036545.476599998772144 ], [ 257029.975399999879301, 7036544.817400000989437 ], [ 257030.342699999921024, 7036544.340700000524521 ], [ 257031.247399999760091, 7036543.914000000804663 ], [ 257033.27240000013262, 7036543.964999999850988 ], [ 257036.756099999882281, 7036544.351399999111891 ], [ 257039.061999999918044, 7036544.717700000852346 ], [ 257041.752799999900162, 7036545.007800001651049 ], [ 257043.126500000245869, 7036545.079799998551607 ], [ 257044.219200000166893, 7036544.514800000935793 ], [ 257045.391699999570847, 7036542.766399998217821 ], [ 257056.615399999544024, 7036520.474599998444319 ], [ 257057.909599999897182, 7036518.523800000548363 ], [ 257059.61739999987185, 7036517.016600001603365 ], [ 257061.542999999597669, 7036516.222600001841784 ], [ 257063.228500000201166, 7036515.762800000607967 ], [ 257065.035799999721348, 7036515.100499998778105 ], [ 257066.36849999986589, 7036514.201400000602007 ], [ 257066.590900000184774, 7036513.145300000905991 ], [ 257066.468299999833107, 7036511.518500000238419 ], [ 257066.168899999931455, 7036508.973600000143051 ], [ 257066.612599999643862, 7036507.0625 ], [ 257067.131508170801681, 7036505.622265077196062 ] ] ] } },
{ "type": "Feature", "properties": { "fid": 1661, "objtype": "ElvBekk", "lokalid": "42b1c4b4-d68f-4ff5-aec4-97c08cf4b7c2", "medium": "U", "vannbredde": 1.0, "vannsperretype": null, "arealRegineEnhet_km2": null, "elveordenStrahler": null, "catch_area": 0.31188664674318661, "water_depth": 0.50656365897446343, "gradient": 0.0, "aggressive": 0.0, "aggressiveness": 0.0, "id": 1661 }, "geometry": { "type": "MultiLineString", "coordinates": [ [ [ 255591.585900000296533, 7041581.596900001168251 ], [ 255580.229600000195205, 7041596.052000001072884 ] ] ] } }
]
}
