{
"type": "FeatureCollection",
"name": "streams_subset_15",
"crs": { "type": "name", "properties": { "name": "urn:ogc:def:crs:EPSG::25833" } },
"features": [
{ "type": "Feature", "properties": { "fid": 990, "objtype": "ElvBekk", "lokalid": "c78f30c3-16ee-44f7-953a-8aca4461062e", "medium": "T", "vannbredde": 1.0, "vannsperretype": null, "arealRegineEnhet_km2": null, "elveordenStrahler": null, "catch_area": 2.249160575912954, "water_depth": 0.81387875803095833, "gradient": 0.0, "aggressive": 0.0, "aggressiveness": 0.0, "id": 990 }, "geometry": { "type": "MultiLineString", "coordinates": [ [ [ 258956.583491459634388, 7034537.224670800380409 ], [ 258956.066800000146031, 7034535.136399999260902 ], [ 258955.255499999970198, 7034533.132100000977516 ], [ 258950.737900000065565, 7034523.877500001341105 ], [ 258950.5921, 7034521.147399999201298 ], [ 258954.162299999967217, 7034517.425000000745058 ], [ 258965.376500000245869, 7034507.125199999660254 ], [ 258967.361999999731779, 7034505.792899999767542 ], [ 258968.825000000186265, 7034505.424400001764297 ] ] ] } },
{ "type": "Feature", "properties": { "fid": 1638, "objtype": "ElvBekk", "lokalid": "7af7490e-3f2e-470d-a1ba-f53d1e94446c", "medium": "T", "vannbredde": 1.0, "vannsperretype": null, "arealRegineEnhet_km2": null, "elveordenStrahler": null, "catch_area": 0.096904475844741794, "water_depth": 0.38264612841897805, "gradient": 0.0, "aggressive": 0.0, "aggressiveness": 0.0, "id": 1638 }, "geometry": { "type": "MultiLineString", "coordinates": [ [ [ 255541.184399999678135, 7041211.318799998611212 ], [ 255542.251000000163913, 7041212.615699999034405 ], [ 255548.293999999761581, 7041223.978500001132488 ], [ 255551.635599999688566, 7041236.650400001555681 ], [ 255555.095700000412762, 7041260.960400000214577 ], [ 255557.5773, 7041300.207600001245737 ], [ 255558.232719771534903, 7041308.647580461576581 ] ] ] } },
{ "type": "Feature", "properties": { "fid": 1218, "objtype": "Elvekant", "lokalid": "3d3917a3-20a5-4971-af1e-58531bdc6bd8", "medium": "T", "vannbredde": null, "vannsperretype": null, "arealRegineEnhet_km2": null, "elveordenStrahler": null, "catch_area": 1.8940754991615116, "water_depth": 1.5, "gradient": 0.0, "aggressive": 0.0, "aggressiveness": 0.0, "id": 1218 }, "geometry": { "type": "MultiLineString", "coordinates": [ [ [ 258096.896099999547005, 7039064.510499998927116 ], [ 258097.224299999885261, 7039061.906700000166893 ], [ 258093.976300000213087, 7039055.2566 ], [ 258092.664099999703467, 7039052.7364999987185 ], [ 258089.794499999843538, 7039049.57880000025034 ], [ 258086.139499999582767, 7039045.8717 ], [ 258083.130300000309944, 7039042.4054000005126 ], [ 258081.768099999986589, 7039040.744300000369549 ], [ 258076.98369999974966, 7039037.746399998664856 ], [ 258069.614599999971688, 7039035.373199999332428 ], [ 258066.25040000025183, 7039032.834800001233816 ], [ 258063.447800000198185, 7039025.469500001519918 ], [ 258060.997000000439584, 7039019.709499999880791 ], [ 258057.300499999895692, 7039015.775100000202656 ], [ 258054.106399999931455, 7039012.265900000929832 ], [ 258052.830400000326335, 7039008.847899999469519 ], [ 258053.222000000067055, 7039004.991799999028444 ], [ 258055.810899999924004, 7039002.165500000119209 ], [ 258057.924999999813735, 7038999.313499998301268 ], [ 258059.71030000038445, 7038997.989900000393391 ], [ 258062.311900000087917, 7038996.046900000423193 ], [ 258065.666699999943376, 7038993.349700000137091 ], [ 258067.426799999549985, 7038991.757100000977516 ], [ 258068.812749985227128, 7038990.341640788130462 ] ] ] } },
{ "type": "Feature", "properties": { "fid": 1176, "objtype": "Elvekant", "lokalid": "c3c62389-1f45-4c55-b4d2-71c61d656a71", "medium": "T", "vannbredde": null, "vannsperretype": null, "arealRegineEnhet_km2": null, "elveordenStrahler": null, "catch_area": 2.2927964705236539, "water_depth": 1.5, "gradient": 0.0, "aggressive": 0.0, "aggressiveness": 0.0, "id": 1176 }, "geometry": { "type": "MultiLineString", "coordinates": [ [ [ 258621.053000000305474, 7038489.5320999994874 ], [ 258616.257000000216067, 7038494.435100000351667 ], [ 258613.198599999770522, 7038499.004099998623133 ], [ 258611.005300000309944, 7038502.938900001347065 ], [ 258609.974399999715388, 7038504.161499999463558 ], [ 258608.142099999822676, 7038505.519600000232458 ], [ 258603.939399999566376, 7038508.286400001496077 ], [ 258600.940899999812245, 7038509.854600001126528 ], [ 258598.18030000012368, 7038510.425500001758337 ], [ 258593.482699999585748, 7038510.384300000965595 ], [ 258590.583899999968708, 7038509.591299999505281 ], [ 258585.771499999798834, 7038506.61600000038743 ], [ 258577.750199999660254, 7038500.937100000679493 ], [ 258572.705199999734759, 7038495.913199998438358 ], [ 258568.326200000010431, 7038489.741300001740456 ], [ 258566.785500000230968, 7038485.966299999505281 ], [ 258566.104199999943376, 7038482.030099999159575 ], [ 258565.646300000138581, 7038475.8717 ], [ 258564.362599999643862, 7038467.770799998193979 ], [ 258563.233631939190673, 7038460.155924146994948 ] ] ] } },
{ "type": "Feature", "properties": { "fid": 1374, "objtype": "ElvBekk", "lokalid": "5936e55d-1de3-44de-851e-daa177932a0a", "medium": "T", "vannbredde": 1.0, "vannsperretype": null, "arealRegineEnhet_km2": null, "elveordenStrahler": null, "catch_area": 1.8825103921458104, "water_depth": 0.77985125333277217, "gradient": 0.0, "aggressive": 0.0, "aggressiveness": 0.0, "id": 1374 }, "geometry": { "type": "MultiLineString", "coordinates": [ [ [ 257920.936099999584258, 7041553.187600001692772 ], [ 257920.451700000092387, 7041554.770899999886751 ], [ 257920.139200000092387, 7041556.579300001263618 ], [ 257920.404199999757111, 7041558.222800001502037 ], [ 257921.718700000084937, 7041559.6974 ], [ 257923.449500000104308, 7041561.323800001293421 ], [ 257926.962000000290573, 7041565.22520000115037 ], [ 257928.659900000318885, 7041567.357200000435114 ], [ 257929.659500000067055, 7041569.5449 ], [ 257929.842799999751151, 7041570.854299999773502 ], [ 257929.342199999839067, 7041572.479400001466274 ], [ 257928.735299999825656, 7041573.400800000876188 ], [ 257927.892699999734759, 7041574.274000000208616 ] ] ] } },
{ "type": "Feature", "properties": { "fid": 79, "objtype": "Elvekant", "lokalid": "b38e22c9-375f-419f-93be-658db81707c6", "medium": "T", "vannbredde": null, "vannsperretype": null, "arealRegineEnhet_km2": null, "elveordenStrahler": null, "catch_area": 23.466571916765865, "water_depth": 1.5, "gradient": 0.0, "aggressive": 0.0, "aggressiveness": 0.0, "id": 79 }, "geometry": { "type": "MultiLineString", "coordinates": [ [ [ 256945.692699999548495, 7035241.867600001394749 ], [ 256943.321800000034273, 7035245.5176 ], [ 256941.825199999846518, 7035247.668400000780821 ] ] ] } },
{ "type": "Feature", "properties": { "fid": 1189, "objtype": "Elvekant", "lokalid": "a8f909a8-81ae-4eec-8476-c7275ea13d91", "medium": "T", "vannbredde": null, "vannsperretype": null, "arealRegineEnhet_km2": null, "elveordenStrahler": null, "catch_area": 2.5128661692778613, "water_depth": 1.5, "gradient": 0.0, "aggressive": 0.0, "aggressiveness": 0.0, "id": 1189 }, "geometry": { "type": "MultiLineString", "coordinates": [ [ [ 258428.68790000025183, 7038407.758499998599291 ], [ 258422.766099999658763, 7038409.450599998235703 ], [ 258418.280199999921024, 7038410.485100001096725 ], [ 258412.52240000013262, 7038410.392799999564886 ], [ 258405.385599999688566, 7038409.314399998635054 ], [ 258398.756400000303984, 7038407.756099998950958 ], [ 258392.565100000239909, 7038405.081300001591444 ], [ 258389.650999999605119, 7038403.696600001305342 ], [ 258387.041299999691546, 7038402.343699999153614 ], [ 258380.786500000394881, 7038402.629799999296665 ], [ 258375.218799999915063, 7038403.062300000339746 ], [ 258370.129300000146031, 7038403.449999999254942 ] ] ] } },
{ "type": "Feature", "properties": { "fid": 1619, "objtype": "Kystkontur", "lokalid": "87742828-440b-4f96-a3b9-b133239daf84", "medium": "T", "vannbredde": null, "vannsperretype": null, "arealRegineEnhet_km2": null, "elveordenStrahler": null, "catch_area": 0.20648441292128561, "water_depth": 7.5, "gradient": 0.0, "aggressive": 0.0, "aggressiveness": 0.0, "id": 1619 }, "geometry": { "type": "MultiLineString", "coordinates": [ [ [ 254484.674030575755751, 7040628.637661403045058 ], [ 254484.368300000205636, 7040628.349700000137091 ], [ 254483.891499999910593, 7040627.660799998790026 ], [ 254483.233799999579787, 7040627.079300001263618 ], [ 254482.664599999785423, 7040626.690499998629093 ], [ 254482.027700000442564, 7040626.11710000038147 ], [ 254481.118400000035763, 7040625.31810000166297 ], [ 254480.333999999798834, 7040624.7787000015378 ], [ 254479.666899999603629, 7040624.097500000149012 ], [ 254478.819299999624491, 7040623.312800001353025 ], [ 254478.424999999813735, 7040622.9679000005126 ], [ 254474.998599999584258, 7040619.982999999076128 ], [ 254472.157999999821186, 7040618.098999999463558 ], [ 254470.216400000266731, 7040616.261100001633167 ], [ 254467.686200000345707, 7040614.257500000298023 ], [ 254465.730100000277162, 7040612.159600000828505 ], [ 254462.892099999822676, 7040609.019000001251698 ], [ 254460.711199999786913, 7040606.5603 ], [ 254456.746100000105798, 7040603.405000001192093 ], [ 254455.130800000391901, 7040601.938499998301268 ], [ 254452.323699999600649, 7040599.44819999858737 ], [ 254449.627899999730289, 7040597.1787 ], [ 254446.91469999961555, 7040593.975999999791384 ], [ 254441.624200000427663, 7040587.839400000870228 ], [ 254439.552099999971688, 7040584.827799998223782 ], [ 254436.551699999719858, 7040580.707299999892712 ], [ 254434.005699999630451, 7040577.358300000429153 ], [ 254431.835799999535084, 7040574.054299999028444 ], [ 254429.159599999897182, 7040570.818 ], [ 254427.037999999709427, 7040567.600000001490116 ], [ 254424.108799999579787, 7040564.558299999684095 ], [ 254421.315100000239909, 7040561.996399998664856 ], [ 254418.41579999960959, 7040558.951999999582767 ], [ 254416.125179993774509, 7040556.614772296510637 ] ] ] } },
{ "type": "Feature", "properties": { "fid": 1088, "objtype": "ElvBekk", "lokalid": "9613bf9d-d7df-4c85-9947-3422b723864b", "medium": "U", "vannbredde": 1.0, "vannsperretype": null, "arealRegineEnhet_km2": null, "elveordenStrahler": null, "catch_area": 1.1712627756049518, "water_depth": 0.69590802478714242, "gradient": 0.0, "aggressive": 0.0, "aggressiveness": 0.0, "id": 1088 }, "geometry": { "type": "MultiLineString", "coordinates": [ [ [ 258713.707700000144541, 7036815.315499998629093 ], [ 258677.246500000357628, 7036822.4087999984622 ] ] ] } },
{ "type": "Feature", "properties": { "fid": 70, "objtype": "Elvekant", "lokalid": "363d92d8-54ff-4b7a-b9a4-e716d1a8eb0e", "medium": "T", "vannbredde": null, "vannsperretype": null, "arealRegineEnhet_km2": null, "elveordenStrahler": null, "catch_area": 19.874776354825173, "water_depth": 1.5, "gradient": 0.0, "aggressive": 0.0, "aggressiveness": 0.0, "id": 70 }, "geometry": { "type": "MultiLineString", "coordinates": [ [ [ 256380.987099999561906, 7034631.67339999973774 ], [ 256382.280799999833107, 7034627.682300001382828 ], [ 256383.213499999605119, 7034625.092000000178814 ], [ 256384.36600000038743, 7034622.38060000166297 ], [ 256385.680499999783933, 7034620.538499999791384 ], [ 256386.861600000411272, 7034619.8445999994874 ], [ 256388.400700000114739, 7034618.574299998581409 ], [ 256389.604299999773502, 7034617.797899998724461 ], [ 256391.240899999625981, 7034617.031100001186132 ], [ 256392.702899999916553, 7034616.331000000238419 ], [ 256395.629800000227988, 7034613.462999999523163 ], [ 256396.53139999974519, 7034613.217500001192093 ], [ 256397.329300000332296, 7034612.509399998933077 ], [ 256398.10149999987334, 7034610.778400000184774 ], [ 256398.287200000137091, 7034609.866500001400709 ], [ 256398.832700000144541, 7034608.076400000602007 ], [ 256399.952899999916553, 7034606.091699998825788 ], [ 256401.017799999564886, 7034604.695099998265505 ] ] ] } },
{ "type": "Feature", "properties": { "fid": 427, "objtype": "ElvBekk", "lokalid": "1eb5a8d5-e4ad-4372-b663-5ed66bdc28d1", "medium": "T", "vannbredde": 1.0, "vannsperretype": null, "arealRegineEnhet_km2": null, "elveordenStrahler": null, "catch_area": 1.5675743468062153, "water_depth": 0.746327695458189, "gradient": 0.0, "aggressive": 0.0, "aggressiveness": 0.0, "id": 427 }, "geometry": { "type": "MultiLineString", "coordinates": [ [ [ 257621.747222760197474, 7037107.014576492831111 ], [ 257621.350899999961257, 7037106.945900000631809 ], [ 257591.969200000166893, 7037102.740499999374151 ], [ 257589.785299999639392, 7037101.960700001567602 ], [ 257585.838499999605119, 7037100.9243 ], [ 257584.019799999892712, 7037100.180500000715256 ], [ 257582.110399999655783, 7037099.435199998319149 ], [ 257579.779299999587238, 7037099.121399998664856 ], [ 257578.230399999767542, 7037099.216699998825788 ], [ 257576.078200000338256, 7037100.27309999987483 ], [ 257575.45380000025034, 7037101.115800000727177 ], [ 257574.881299999542534, 7037103.260099999606609 ], [ 257573.757299999706447, 7037104.883400000631809 ], [ 257572.59360000025481, 7037105.334399998188019 ], [ 257572.17949999962002, 7037104.991399999707937 ], [ 257572.491100000217557, 7037101.353900000452995 ], [ 257572.771099999547005, 7037100.161699999123812 ], [ 257572.705599999986589, 7037099.464200001209974 ], [ 257571.483599999919534, 7037098.332699999213219 ], [ 257570.409500000067055, 7037098.132100000977516 ], [ 257568.064799999818206, 7037098.422699999064207 ], [ 257566.009700000286102, 7037099.228799998760223 ], [ 257564.626899999566376, 7037100.343699999153614 ], [ 257556.540199999697506, 7037105.204 ], [ 257554.738599999807775, 7037105.926100000739098 ], [ 257552.889600000344217, 7037106.57209999859333 ], [ 257551.850399999879301, 7037107.1722999997437 ], [ 257549.982599999755621, 7037108.473400000482798 ], [ 257548.751500000245869, 7037110.348000001162291 ], [ 257545.826799999922514, 7037113.879200000315905 ], [ 257544.623200000263751, 7037114.33390000090003 ], [ 257542.932300000451505, 7037114.844500001519918 ], [ 257541.284799999557436, 7037115.602299999445677 ], [ 257539.066204822127474, 7037117.602391680702567 ] ] ] } },
{ "type": "Feature", "properties": { "fid": 507, "objtype": "Innsjøkant", "lokalid": "f5bdb1b0-f4df-4283-a79f-171bde01ad5f", "medium": "T", "vannbredde": null, "vannsperretype": null, "arealRegineEnhet_km2": null, "elveordenStrahler": null, "catch_area": 0.13556608714839657, "water_depth": 0.25, "gradient": 0.0, "aggressive": 0.0, "aggressiveness": 0.0, "id": 507 }, "geometry": { "type": "MultiLineString", "coordinates": [ [ [ 254888.552199999801815, 7037980.103300001472235 ], [ 254888.549899999983609, 7037984.144099999219179 ], [ 254885.675699999555945, 7037985.539799999445677 ] ] ] } },
{ "type": "Feature", "properties": { "fid": 24, "objtype": "Elvekant", "lokalid": "397adbcf-845d-40c3-91b0-4785e3b84a9e", "medium": "T", "vannbredde": null, "vannsperretype": null, "arealRegineEnhet_km2": null, "elveordenStrahler": null, "catch_area": 23.078807169020557, "water_depth": 1.5, "gradient": 0.0, "aggressive": 0.0, "aggressiveness": 0.0, "id": 24 }, "geometry": { "type": "MultiLineString", "coordinates": [ [ [ 256878.342595742753474, 7035066.808085628785193 ], [ 256878.070299999788404, 7035066.247299998998642 ], [ 256875.402400000020862, 7035060.849300000816584 ], [ 256873.825899999588728, 7035058.404199998825788 ], [ 256872.446299999952316, 7035056.342700000852346 ], [ 256871.02309999987483, 7035054.245000001043081 ], [ 256868.822300000116229, 7035052.964200001209974 ], [ 256866.979799999855459, 7035051.860800001770258 ], [ 256862.057199999690056, 7035048.996199999004602 ], [ 256855.031000000424683, 7035045.24379999935627 ], [ 256850.164599999785423, 7035042.6554000005126 ], [ 256845.201899999752641, 7035038.186500001698732 ], [ 256842.246799999848008, 7035035.830699998885393 ], [ 256838.076799999922514, 7035033.488499999046326 ], [ 256833.833999999798834, 7035031.333999998867512 ], [ 256830.7171, 7035029.717099998146296 ], [ 256827.767099999822676, 7035029.662399999797344 ], [ 256824.873499999754131, 7035029.9945 ], [ 256823.873100000433624, 7035029.937699999660254 ], [ 256823.097500000149012, 7035029.598400000482798 ], [ 256820.126000000163913, 7035027.817099999636412 ], [ 256818.172899999655783, 7035026.070700000971556 ], [ 256814.58490000013262, 7035025.965500000864267 ], [ 256810.981800000183284, 7035026.876800000667572 ], [ 256806.741399999707937, 7035027.958500001579523 ], [ 256803.542799999937415, 7035028.681000001728535 ], [ 256800.558299999684095, 7035029.544199999421835 ], [ 256797.406999999657273, 7035030.342700000852346 ], [ 256794.482513678289251, 7035030.627101902849972 ] ] ] } },
{ "type": "Feature", "properties": { "fid": 1582, "objtype": "Kanalkant", "lokalid": "7236c27c-157c-4b30-a5e4-b1470991b7b0", "medium": "T", "vannbredde": null, "vannsperretype": null, "arealRegineEnhet_km2": null, "elveordenStrahler": null, "catch_area": 0.091640833195219942, "water_depth": 0.3775514736114024, "gradient": 0.0, "aggressive": 0.0, "aggressiveness": 0.0, "id": 1582 }, "geometry": { "type": "MultiLineString", "coordinates": [ [ [ 255808.000099999830127, 7039920.354800000786781 ], [ 255806.352400000207126, 7039918.650100000202656 ], [ 255797.938699999824166, 7039912.113400001078844 ], [ 255786.309899999760091, 7039902.381000000983477 ], [ 255775.645600000396371, 7039893.392299998551607 ], [ 255767.535000000149012, 7039886.123500000685453 ], [ 255754.879999999888241, 7039876.165899999439716 ], [ 255742.080500000156462, 7039866.061099998652935 ], [ 255731.114199999719858, 7039857.281599998474121 ], [ 255730.717179241939448, 7039856.954976019449532 ] ] ] } },
{ "type": "Feature", "properties": { "fid": 71, "objtype": "Elvekant", "lokalid": "f25f831e-252e-48b6-a954-7e9d3df6242e", "medium": "T", "vannbredde": null, "vannsperretype": null, "arealRegineEnhet_km2": null, "elveordenStrahler": null, "catch_area": 23.775069299282222, "water_depth": 1.5, "gradient": 0.0, "aggressive": 0.0, "aggressiveness": 0.0, "id": 71 }, "geometry": { "type": "MultiLineString", "coordinates": [ [ [ 256424.359120423672721, 7034653.50308152101934 ], [ 256421.599000000394881, 7034653.358600001782179 ], [ 256417.57149999961257, 7034653.817200001329184 ], [ 256410.701100000180304, 7034654.934799998998642 ], [ 256406.338499999605119, 7034654.821899998933077 ], [ 256402.071000000461936, 7034654.11710000038147 ], [ 256397.523900000378489, 7034653.539000000804663 ], [ 256391.684299999848008, 7034651.8260000012815 ], [ 256388.500099999830127, 7034649.491700001060963 ], [ 256385.248399999924004, 7034646.1184 ], [ 256383.793100000359118, 7034643.893100000917912 ], [ 256381.45380000025034, 7034637.499299999326468 ], [ 256380.987099999561906, 7034631.67339999973774 ] ] ] } }
]
}
